{"type":"FeatureCollection","features":[{"type":"Feature","properties":{"n":"London","r":0,"s":0},"geometry":{"type":"Point","coordinates":[-0.1257,51.5085]}},{"type":"Feature","properties":{"n":"Birmingham","r":0,"s":1},"geometry":{"type":"Point","coordinates":[-1.8998,52.4814]}},{"type":"Feature","properties":{"n":"Glasgow","r":0,"s":2},"geometry":{"type":"Point","coordinates":[-4.2576,55.8651]}},{"type":"Feature","properties":{"n":"Manchester","r":0,"s":3},"geometry":{"type":"Point","coordinates":[-2.2374,53.4809]}},{"type":"Feature","properties":{"n":"Sheffield","r":0,"s":4},"geometry":{"type":"Point","coordinates":[-1.4659,53.383]}},{"type":"Feature","properties":{"n":"Leeds","r":0,"s":5},"geometry":{"type":"Point","coordinates":[-1.5478,53.7965]}},{"type":"Feature","properties":{"n":"Edinburgh","r":0,"s":6},"geometry":{"type":"Point","coordinates":[-3.1965,55.9521]}},{"type":"Feature","properties":{"n":"Liverpool","r":0,"s":7},"geometry":{"type":"Point","coordinates":[-2.9779,53.4106]}},{"type":"Feature","properties":{"n":"Bristol","r":0,"s":8},"geometry":{"type":"Point","coordinates":[-2.5966,51.4552]}},{"type":"Feature","properties":{"n":"Cardiff","r":0,"s":9},"geometry":{"type":"Point","coordinates":[-3.18,51.48]}},{"type":"Feature","properties":{"n":"Leicester","r":0,"s":10},"geometry":{"type":"Point","coordinates":[-1.1317,52.6386]}},{"type":"Feature","properties":{"n":"Bradford","r":0,"s":11},"geometry":{"type":"Point","coordinates":[-1.7521,53.7939]}},{"type":"Feature","properties":{"n":"Belfast","r":0,"s":12},"geometry":{"type":"Point","coordinates":[-5.9254,54.5968]}},{"type":"Feature","properties":{"n":"Coventry","r":0,"s":13},"geometry":{"type":"Point","coordinates":[-1.5122,52.4066]}},{"type":"Feature","properties":{"n":"Birkenhead","r":0,"s":14},"geometry":{"type":"Point","coordinates":[-3.0148,53.3934]}},{"type":"Feature","properties":{"n":"Nottingham","r":0,"s":15},"geometry":{"type":"Point","coordinates":[-1.1505,52.9536]}},{"type":"Feature","properties":{"n":"Islington","r":3,"s":16},"geometry":{"type":"Point","coordinates":[-0.103,51.5362]}},{"type":"Feature","properties":{"n":"Reading","r":0,"s":17},"geometry":{"type":"Point","coordinates":[-0.9711,51.4562]}},{"type":"Feature","properties":{"n":"Kingston upon Hull","r":0,"s":18},"geometry":{"type":"Point","coordinates":[-0.3352,53.7446]}},{"type":"Feature","properties":{"n":"Preston","r":0,"s":19},"geometry":{"type":"Point","coordinates":[-2.7045,53.7628]}},{"type":"Feature","properties":{"n":"Swansea","r":0,"s":20},"geometry":{"type":"Point","coordinates":[-3.9432,51.6208]}},{"type":"Feature","properties":{"n":"Newcastle upon Tyne","r":0,"s":21},"geometry":{"type":"Point","coordinates":[-1.614,54.9733]}},{"type":"Feature","properties":{"n":"Southend-on-Sea","r":1,"s":22},"geometry":{"type":"Point","coordinates":[0.7143,51.5378]}},{"type":"Feature","properties":{"n":"Brighton","r":1,"s":23},"geometry":{"type":"Point","coordinates":[-0.1395,50.8284]}},{"type":"Feature","properties":{"n":"Derby","r":1,"s":24},"geometry":{"type":"Point","coordinates":[-1.4766,52.9228]}},{"type":"Feature","properties":{"n":"Southampton","r":1,"s":25},"geometry":{"type":"Point","coordinates":[-1.4043,50.904]}},{"type":"Feature","properties":{"n":"Wolverhampton","r":1,"s":26},"geometry":{"type":"Point","coordinates":[-2.123,52.5855]}},{"type":"Feature","properties":{"n":"Plymouth","r":1,"s":27},"geometry":{"type":"Point","coordinates":[-4.143,50.3715]}},{"type":"Feature","properties":{"n":"Stoke-on-Trent","r":1,"s":28},"geometry":{"type":"Point","coordinates":[-2.1854,53.0042]}},{"type":"Feature","properties":{"n":"Milton Keynes","r":1,"s":29},"geometry":{"type":"Point","coordinates":[-0.7558,52.0417]}},{"type":"Feature","properties":{"n":"City of Westminster","r":3,"s":30},"geometry":{"type":"Point","coordinates":[-0.1357,51.4975]}},{"type":"Feature","properties":{"n":"Northampton","r":1,"s":31},"geometry":{"type":"Point","coordinates":[-0.8833,52.25]}},{"type":"Feature","properties":{"n":"Oldham","r":1,"s":32},"geometry":{"type":"Point","coordinates":[-2.1183,53.5405]}},{"type":"Feature","properties":{"n":"Luton","r":1,"s":33},"geometry":{"type":"Point","coordinates":[-0.4175,51.8797]}},{"type":"Feature","properties":{"n":"Barking","r":3,"s":34},"geometry":{"type":"Point","coordinates":[0.0833,51.5333]}},{"type":"Feature","properties":{"n":"Portsmouth","r":1,"s":35},"geometry":{"type":"Point","coordinates":[-1.0913,50.799]}},{"type":"Feature","properties":{"n":"Swindon","r":1,"s":36},"geometry":{"type":"Point","coordinates":[-1.7812,51.558]}},{"type":"Feature","properties":{"n":"Dudley","r":1,"s":37},"geometry":{"type":"Point","coordinates":[-2.0833,52.5]}},{"type":"Feature","properties":{"n":"Aberdeen","r":1,"s":38},"geometry":{"type":"Point","coordinates":[-2.0981,57.1437]}},{"type":"Feature","properties":{"n":"Sutton","r":3,"s":39},"geometry":{"type":"Point","coordinates":[-0.2,51.35]}},{"type":"Feature","properties":{"n":"St Helens","r":1,"s":40},"geometry":{"type":"Point","coordinates":[-2.7333,53.45]}},{"type":"Feature","properties":{"n":"Ipswich","r":1,"s":41},"geometry":{"type":"Point","coordinates":[1.1555,52.0592]}},{"type":"Feature","properties":{"n":"Wigan","r":1,"s":42},"geometry":{"type":"Point","coordinates":[-2.6371,53.543]}},{"type":"Feature","properties":{"n":"Croydon","r":3,"s":43},"geometry":{"type":"Point","coordinates":[-0.1,51.3833]}},{"type":"Feature","properties":{"n":"Warrington","r":1,"s":44},"geometry":{"type":"Point","coordinates":[-2.5802,53.3925]}},{"type":"Feature","properties":{"n":"Walsall","r":1,"s":45},"geometry":{"type":"Point","coordinates":[-1.984,52.5853]}},{"type":"Feature","properties":{"n":"Mansfield","r":1,"s":46},"geometry":{"type":"Point","coordinates":[-1.2,53.1333]}},{"type":"Feature","properties":{"n":"Sunderland","r":1,"s":47},"geometry":{"type":"Point","coordinates":[-1.3822,54.9046]}},{"type":"Feature","properties":{"n":"Ilford","r":3,"s":48},"geometry":{"type":"Point","coordinates":[0.0728,51.5577]}},{"type":"Feature","properties":{"n":"Slough","r":1,"s":49},"geometry":{"type":"Point","coordinates":[-0.5954,51.5095]}},{"type":"Feature","properties":{"n":"Bournemouth","r":1,"s":50},"geometry":{"type":"Point","coordinates":[-1.8795,50.7205]}},{"type":"Feature","properties":{"n":"Peterborough","r":1,"s":51},"geometry":{"type":"Point","coordinates":[-0.2478,52.5736]}},{"type":"Feature","properties":{"n":"Oxford","r":1,"s":52},"geometry":{"type":"Point","coordinates":[-1.256,51.7522]}},{"type":"Feature","properties":{"n":"Newport","r":1,"s":53},"geometry":{"type":"Point","coordinates":[-2.9983,51.5877]}},{"type":"Feature","properties":{"n":"Enfield Town","r":3,"s":54},"geometry":{"type":"Point","coordinates":[-0.085,51.6515]}},{"type":"Feature","properties":{"n":"York","r":1,"s":55},"geometry":{"type":"Point","coordinates":[-1.0827,53.9576]}},{"type":"Feature","properties":{"n":"Telford","r":1,"s":56},"geometry":{"type":"Point","coordinates":[-2.4493,52.6766]}},{"type":"Feature","properties":{"n":"Poole","r":1,"s":57},"geometry":{"type":"Point","coordinates":[-1.9846,50.7143]}},{"type":"Feature","properties":{"n":"Burnley","r":2,"s":58},"geometry":{"type":"Point","coordinates":[-2.2333,53.8]}},{"type":"Feature","properties":{"n":"Harrow","r":3,"s":59},"geometry":{"type":"Point","coordinates":[-0.3321,51.5784]}},{"type":"Feature","properties":{"n":"Huddersfield","r":2,"s":60},"geometry":{"type":"Point","coordinates":[-1.7842,53.649]}},{"type":"Feature","properties":{"n":"Dundee","r":2,"s":61},"geometry":{"type":"Point","coordinates":[-2.9749,56.4691]}},{"type":"Feature","properties":{"n":"Blackburn","r":2,"s":62},"geometry":{"type":"Point","coordinates":[-2.4833,53.75]}},{"type":"Feature","properties":{"n":"Cambridge","r":2,"s":63},"geometry":{"type":"Point","coordinates":[0.1167,52.2]}},{"type":"Feature","properties":{"n":"Blackpool","r":2,"s":64},"geometry":{"type":"Point","coordinates":[-3.05,53.8167]}},{"type":"Feature","properties":{"n":"Basildon","r":2,"s":65},"geometry":{"type":"Point","coordinates":[0.4578,51.5684]}},{"type":"Feature","properties":{"n":"Norwich","r":2,"s":66},"geometry":{"type":"Point","coordinates":[1.2983,52.6278]}},{"type":"Feature","properties":{"n":"Middlesbrough","r":2,"s":67},"geometry":{"type":"Point","coordinates":[-1.2348,54.5762]}},{"type":"Feature","properties":{"n":"Bolton","r":2,"s":68},"geometry":{"type":"Point","coordinates":[-2.4333,53.5833]}},{"type":"Feature","properties":{"n":"Stockport","r":2,"s":69},"geometry":{"type":"Point","coordinates":[-2.1576,53.4098]}},{"type":"Feature","properties":{"n":"High Wycombe","r":2,"s":70},"geometry":{"type":"Point","coordinates":[-0.7493,51.6291]}},{"type":"Feature","properties":{"n":"Gloucester","r":2,"s":71},"geometry":{"type":"Point","coordinates":[-2.2431,51.8657]}},{"type":"Feature","properties":{"n":"Exeter","r":2,"s":72},"geometry":{"type":"Point","coordinates":[-3.5275,50.7236]}},{"type":"Feature","properties":{"n":"Colchester","r":2,"s":73},"geometry":{"type":"Point","coordinates":[0.9042,51.8892]}},{"type":"Feature","properties":{"n":"Tottenham","r":3,"s":74},"geometry":{"type":"Point","coordinates":[-0.0679,51.6037]}},{"type":"Feature","properties":{"n":"Salford","r":2,"s":75},"geometry":{"type":"Point","coordinates":[-2.2904,53.4877]}},{"type":"Feature","properties":{"n":"Newcastle under Lyme","r":2,"s":76},"geometry":{"type":"Point","coordinates":[-2.2333,53.0]}},{"type":"Feature","properties":{"n":"Solihull","r":2,"s":77},"geometry":{"type":"Point","coordinates":[-1.7809,52.4143]}},{"type":"Feature","properties":{"n":"Watford","r":2,"s":78},"geometry":{"type":"Point","coordinates":[-0.396,51.6553]}},{"type":"Feature","properties":{"n":"Saint Peters","r":2,"s":79},"geometry":{"type":"Point","coordinates":[1.4167,51.3667]}},{"type":"Feature","properties":{"n":"Crawley","r":2,"s":80},"geometry":{"type":"Point","coordinates":[-0.1831,51.113]}},{"type":"Feature","properties":{"n":"Burton upon Trent","r":2,"s":81},"geometry":{"type":"Point","coordinates":[-1.6426,52.8073]}},{"type":"Feature","properties":{"n":"Cheltenham","r":2,"s":82},"geometry":{"type":"Point","coordinates":[-2.0797,51.9001]}},{"type":"Feature","properties":{"n":"Rotherham","r":2,"s":83},"geometry":{"type":"Point","coordinates":[-1.3568,53.4301]}},{"type":"Feature","properties":{"n":"Worthing","r":2,"s":84},"geometry":{"type":"Point","coordinates":[-0.3754,50.818]}},{"type":"Feature","properties":{"n":"Doncaster","r":2,"s":85},"geometry":{"type":"Point","coordinates":[-1.1312,53.5228]}},{"type":"Feature","properties":{"n":"Chesterfield","r":2,"s":86},"geometry":{"type":"Point","coordinates":[-1.4167,53.25]}},{"type":"Feature","properties":{"n":"Chelmsford","r":2,"s":87},"geometry":{"type":"Point","coordinates":[0.4696,51.7358]}},{"type":"Feature","properties":{"n":"Sutton Coldfield","r":2,"s":88},"geometry":{"type":"Point","coordinates":[-1.8167,52.5667]}},{"type":"Feature","properties":{"n":"Wakefield","r":2,"s":89},"geometry":{"type":"Point","coordinates":[-1.4977,53.6833]}},{"type":"Feature","properties":{"n":"Walthamstow","r":3,"s":90},"geometry":{"type":"Point","coordinates":[-0.0208,51.5907]}},{"type":"Feature","properties":{"n":"Dagenham","r":3,"s":91},"geometry":{"type":"Point","coordinates":[0.1667,51.55]}},{"type":"Feature","properties":{"n":"Basingstoke","r":2,"s":92},"geometry":{"type":"Point","coordinates":[-1.0871,51.2625]}},{"type":"Feature","properties":{"n":"Maidstone","r":2,"s":93},"geometry":{"type":"Point","coordinates":[0.5167,51.2667]}},{"type":"Feature","properties":{"n":"Bedford","r":2,"s":94},"geometry":{"type":"Point","coordinates":[-0.4663,52.1346]}},{"type":"Feature","properties":{"n":"Woking","r":2,"s":95},"geometry":{"type":"Point","coordinates":[-0.5589,51.319]}},{"type":"Feature","properties":{"n":"Lincoln","r":2,"s":96},"geometry":{"type":"Point","coordinates":[-0.5379,53.2268]}},{"type":"Feature","properties":{"n":"West Bromwich","r":2,"s":97},"geometry":{"type":"Point","coordinates":[-1.9945,52.5187]}},{"type":"Feature","properties":{"n":"Eastbourne","r":2,"s":98},"geometry":{"type":"Point","coordinates":[0.2845,50.7687]}},{"type":"Feature","properties":{"n":"Worcester","r":2,"s":99},"geometry":{"type":"Point","coordinates":[-2.22,52.1893]}},{"type":"Feature","properties":{"n":"Bath","r":2,"s":100},"geometry":{"type":"Point","coordinates":[-2.3617,51.3751]}},{"type":"Feature","properties":{"n":"Gillingham","r":2,"s":101},"geometry":{"type":"Point","coordinates":[0.5486,51.3891]}},{"type":"Feature","properties":{"n":"Rochdale","r":2,"s":102},"geometry":{"type":"Point","coordinates":[-2.1552,53.6177]}},{"type":"Feature","properties":{"n":"Hemel Hempstead","r":2,"s":103},"geometry":{"type":"Point","coordinates":[-0.4497,51.7537]}},{"type":"Feature","properties":{"n":"Romford","r":3,"s":104},"geometry":{"type":"Point","coordinates":[0.1858,51.5752]}},{"type":"Feature","properties":{"n":"Hayes","r":3,"s":105},"geometry":{"type":"Point","coordinates":[-0.4234,51.5158]}},{"type":"Feature","properties":{"n":"Harlow","r":2,"s":106},"geometry":{"type":"Point","coordinates":[0.1116,51.7766]}},{"type":"Feature","properties":{"n":"Hastings","r":2,"s":107},"geometry":{"type":"Point","coordinates":[0.5801,50.8557]}},{"type":"Feature","properties":{"n":"Darlington","r":2,"s":108},"geometry":{"type":"Point","coordinates":[-1.5504,54.5243]}},{"type":"Feature","properties":{"n":"Stevenage","r":2,"s":109},"geometry":{"type":"Point","coordinates":[-0.2026,51.9022]}},{"type":"Feature","properties":{"n":"Southport","r":2,"s":110},"geometry":{"type":"Point","coordinates":[-3.0101,53.6458]}},{"type":"Feature","properties":{"n":"Chester","r":2,"s":111},"geometry":{"type":"Point","coordinates":[-2.8919,53.1905]}},{"type":"Feature","properties":{"n":"Wembley","r":3,"s":112},"geometry":{"type":"Point","coordinates":[-0.2969,51.5524]}},{"type":"Feature","properties":{"n":"Grays","r":2,"s":113},"geometry":{"type":"Point","coordinates":[0.3252,51.4757]}},{"type":"Feature","properties":{"n":"Harrogate","r":2,"s":114},"geometry":{"type":"Point","coordinates":[-1.5373,53.9908]}},{"type":"Feature","properties":{"n":"Hartlepool","r":2,"s":115},"geometry":{"type":"Point","coordinates":[-1.2103,54.6855]}},{"type":"Feature","properties":{"n":"Nuneaton","r":2,"s":116},"geometry":{"type":"Point","coordinates":[-1.4652,52.5232]}},{"type":"Feature","properties":{"n":"Redditch","r":2,"s":117},"geometry":{"type":"Point","coordinates":[-1.9457,52.3065]}},{"type":"Feature","properties":{"n":"Fulham","r":3,"s":118},"geometry":{"type":"Point","coordinates":[-0.1993,51.4803]}},{"type":"Feature","properties":{"n":"Grimsby","r":2,"s":119},"geometry":{"type":"Point","coordinates":[-0.0755,53.5654]}},{"type":"Feature","properties":{"n":"Cannock","r":2,"s":120},"geometry":{"type":"Point","coordinates":[-2.0309,52.6904]}},{"type":"Feature","properties":{"n":"St Albans","r":2,"s":121},"geometry":{"type":"Point","coordinates":[-0.3333,51.75]}},{"type":"Feature","properties":{"n":"South Shields","r":2,"s":122},"geometry":{"type":"Point","coordinates":[-1.4323,54.9986]}},{"type":"Feature","properties":{"n":"Derry","r":2,"s":123},"geometry":{"type":"Point","coordinates":[-7.3093,54.9981]}},{"type":"Feature","properties":{"n":"Weston-super-Mare","r":2,"s":124},"geometry":{"type":"Point","coordinates":[-2.9766,51.346]}},{"type":"Feature","properties":{"n":"Halifax","r":2,"s":125},"geometry":{"type":"Point","coordinates":[-1.85,53.7167]}},{"type":"Feature","properties":{"n":"Edmonton","r":3,"s":126},"geometry":{"type":"Point","coordinates":[-0.058,51.6256]}},{"type":"Feature","properties":{"n":"Tamworth","r":2,"s":127},"geometry":{"type":"Point","coordinates":[-1.6959,52.634]}},{"type":"Feature","properties":{"n":"Gosport","r":2,"s":128},"geometry":{"type":"Point","coordinates":[-1.129,50.7951]}},{"type":"Feature","properties":{"n":"Scunthorpe","r":2,"s":129},"geometry":{"type":"Point","coordinates":[-0.6544,53.5791]}},{"type":"Feature","properties":{"n":"Chatham","r":2,"s":130},"geometry":{"type":"Point","coordinates":[0.5279,51.3789]}},{"type":"Feature","properties":{"n":"Stockton-on-Tees","r":2,"s":131},"geometry":{"type":"Point","coordinates":[-1.3187,54.5685]}},{"type":"Feature","properties":{"n":"Carlisle","r":2,"s":132},"geometry":{"type":"Point","coordinates":[-2.9382,54.8951]}},{"type":"Feature","properties":{"n":"Southall","r":3,"s":133},"geometry":{"type":"Point","coordinates":[-0.3713,51.509]}},{"type":"Feature","properties":{"n":"Rugby","r":2,"s":134},"geometry":{"type":"Point","coordinates":[-1.2642,52.3709]}},{"type":"Feature","properties":{"n":"Gateshead","r":2,"s":135},"geometry":{"type":"Point","coordinates":[-1.6017,54.9621]}},{"type":"Feature","properties":{"n":"Lisburn","r":2,"s":136},"geometry":{"type":"Point","coordinates":[-6.0353,54.5234]}},{"type":"Feature","properties":{"n":"Paisley","r":2,"s":137},"geometry":{"type":"Point","coordinates":[-4.4325,55.8317]}},{"type":"Feature","properties":{"n":"Shrewsbury","r":2,"s":138},"geometry":{"type":"Point","coordinates":[-2.7521,52.7101]}},{"type":"Feature","properties":{"n":"Fylde","r":2,"s":139},"geometry":{"type":"Point","coordinates":[-2.9167,53.8333]}},{"type":"Feature","properties":{"n":"Crewe","r":2,"s":140},"geometry":{"type":"Point","coordinates":[-2.4416,53.0979]}},{"type":"Feature","properties":{"n":"Bracknell","r":2,"s":141},"geometry":{"type":"Point","coordinates":[-0.7505,51.4136]}},{"type":"Feature","properties":{"n":"East Kilbride","r":2,"s":142},"geometry":{"type":"Point","coordinates":[-4.1767,55.7641]}},{"type":"Feature","properties":{"n":"Hove","r":2,"s":143},"geometry":{"type":"Point","coordinates":[-0.1672,50.8309]}},{"type":"Feature","properties":{"n":"Aylesbury","r":2,"s":144},"geometry":{"type":"Point","coordinates":[-0.8146,51.8167]}},{"type":"Feature","properties":{"n":"Purley","r":3,"s":145},"geometry":{"type":"Point","coordinates":[-0.112,51.3368]}},{"type":"Feature","properties":{"n":"Guildford","r":2,"s":146},"geometry":{"type":"Point","coordinates":[-0.5743,51.2354]}},{"type":"Feature","properties":{"n":"Barnsley","r":2,"s":147},"geometry":{"type":"Point","coordinates":[-1.4833,53.55]}},{"type":"Feature","properties":{"n":"Lowestoft","r":2,"s":148},"geometry":{"type":"Point","coordinates":[1.7517,52.4752]}},{"type":"Feature","properties":{"n":"Chingford","r":3,"s":149},"geometry":{"type":"Point","coordinates":[0.0005,51.6303]}},{"type":"Feature","properties":{"n":"Maidenhead","r":2,"s":150},"geometry":{"type":"Point","coordinates":[-0.7199,51.5228]}},{"type":"Feature","properties":{"n":"Stafford","r":2,"s":151},"geometry":{"type":"Point","coordinates":[-2.1164,52.8052]}},{"type":"Feature","properties":{"n":"Uxbridge","r":3,"s":152},"geometry":{"type":"Point","coordinates":[-0.4821,51.5489]}},{"type":"Feature","properties":{"n":"Rhondda","r":3,"s":153},"geometry":{"type":"Point","coordinates":[-3.4489,51.659]}},{"type":"Feature","properties":{"n":"Royal Tunbridge Wells","r":3,"s":154},"geometry":{"type":"Point","coordinates":[0.2626,51.1332]}},{"type":"Feature","properties":{"n":"Corby","r":3,"s":155},"geometry":{"type":"Point","coordinates":[-0.6894,52.4964]}},{"type":"Feature","properties":{"n":"Paignton","r":3,"s":156},"geometry":{"type":"Point","coordinates":[-3.5679,50.4357]}},{"type":"Feature","properties":{"n":"Washington","r":3,"s":157},"geometry":{"type":"Point","coordinates":[-1.5167,54.9]}},{"type":"Feature","properties":{"n":"Folkestone","r":3,"s":158},"geometry":{"type":"Point","coordinates":[1.1673,51.0817]}},{"type":"Feature","properties":{"n":"Hounslow","r":3,"s":159},"geometry":{"type":"Point","coordinates":[-0.3609,51.4684]}},{"type":"Feature","properties":{"n":"Finchley","r":3,"s":160},"geometry":{"type":"Point","coordinates":[-0.1952,51.601]}},{"type":"Feature","properties":{"n":"Wrexham","r":3,"s":161},"geometry":{"type":"Point","coordinates":[-2.9913,53.0466]}},{"type":"Feature","properties":{"n":"Ellesmere Port Town","r":3,"s":162},"geometry":{"type":"Point","coordinates":[-2.9013,53.2788]}},{"type":"Feature","properties":{"n":"Torquay","r":3,"s":163},"geometry":{"type":"Point","coordinates":[-3.5252,50.462]}},{"type":"Feature","properties":{"n":"Cricklewood","r":3,"s":164},"geometry":{"type":"Point","coordinates":[-0.2155,51.5567]}},{"type":"Feature","properties":{"n":"Loughborough","r":3,"s":165},"geometry":{"type":"Point","coordinates":[-1.2,52.7667]}},{"type":"Feature","properties":{"n":"Taunton","r":3,"s":166},"geometry":{"type":"Point","coordinates":[-3.1029,51.0149]}},{"type":"Feature","properties":{"n":"Waterlooville","r":3,"s":167},"geometry":{"type":"Point","coordinates":[-1.0304,50.8807]}},{"type":"Feature","properties":{"n":"Bognor Regis","r":3,"s":168},"geometry":{"type":"Point","coordinates":[-0.6798,50.7821]}},{"type":"Feature","properties":{"n":"Newtownabbey","r":3,"s":169},"geometry":{"type":"Point","coordinates":[-5.9086,54.6598]}},{"type":"Feature","properties":{"n":"Buckley","r":3,"s":170},"geometry":{"type":"Point","coordinates":[-3.0833,53.1667]}},{"type":"Feature","properties":{"n":"Great Yarmouth","r":3,"s":171},"geometry":{"type":"Point","coordinates":[1.7305,52.6083]}},{"type":"Feature","properties":{"n":"Mitcham","r":3,"s":172},"geometry":{"type":"Point","coordinates":[-0.1683,51.4032]}},{"type":"Feature","properties":{"n":"Feltham","r":3,"s":173},"geometry":{"type":"Point","coordinates":[-0.4139,51.4462]}},{"type":"Feature","properties":{"n":"Margate","r":3,"s":174},"geometry":{"type":"Point","coordinates":[1.3862,51.3813]}},{"type":"Feature","properties":{"n":"Ashford","r":3,"s":175},"geometry":{"type":"Point","coordinates":[0.8738,51.1465]}},{"type":"Feature","properties":{"n":"Sale","r":3,"s":176},"geometry":{"type":"Point","coordinates":[-2.3244,53.4252]}},{"type":"Feature","properties":{"n":"Tonypandy","r":3,"s":177},"geometry":{"type":"Point","coordinates":[-3.4554,51.622]}},{"type":"Feature","properties":{"n":"Acton","r":3,"s":178},"geometry":{"type":"Point","coordinates":[-0.2762,51.509]}},{"type":"Feature","properties":{"n":"Scarborough","r":3,"s":179},"geometry":{"type":"Point","coordinates":[-0.4044,54.2797]}},{"type":"Feature","properties":{"n":"Widnes","r":3,"s":180},"geometry":{"type":"Point","coordinates":[-2.7341,53.3618]}},{"type":"Feature","properties":{"n":"Runcorn","r":3,"s":181},"geometry":{"type":"Point","coordinates":[-2.7312,53.3417]}},{"type":"Feature","properties":{"n":"Bury","r":3,"s":182},"geometry":{"type":"Point","coordinates":[-2.3,53.6]}},{"type":"Feature","properties":{"n":"Dewsbury","r":3,"s":183},"geometry":{"type":"Point","coordinates":[-1.6291,53.6908]}},{"type":"Feature","properties":{"n":"Bangor","r":3,"s":184},"geometry":{"type":"Point","coordinates":[-5.668,54.6608]}},{"type":"Feature","properties":{"n":"Beckenham","r":3,"s":185},"geometry":{"type":"Point","coordinates":[-0.0253,51.4088]}},{"type":"Feature","properties":{"n":"Farnborough","r":3,"s":186},"geometry":{"type":"Point","coordinates":[-0.7557,51.2942]}},{"type":"Feature","properties":{"n":"Tynemouth","r":3,"s":187},"geometry":{"type":"Point","coordinates":[-1.4256,55.0179]}},{"type":"Feature","properties":{"n":"Hereford","r":3,"s":188},"geometry":{"type":"Point","coordinates":[-2.7148,52.0568]}},{"type":"Feature","properties":{"n":"Stroud","r":3,"s":189},"geometry":{"type":"Point","coordinates":[-2.2,51.75]}},{"type":"Feature","properties":{"n":"Halesowen","r":3,"s":190},"geometry":{"type":"Point","coordinates":[-2.0494,52.4486]}},{"type":"Feature","properties":{"n":"Craigavon","r":3,"s":191},"geometry":{"type":"Point","coordinates":[-6.387,54.4471]}},{"type":"Feature","properties":{"n":"Wallasey","r":3,"s":192},"geometry":{"type":"Point","coordinates":[-3.065,53.4232]}},{"type":"Feature","properties":{"n":"Littlehampton","r":3,"s":193},"geometry":{"type":"Point","coordinates":[-0.5408,50.8114]}},{"type":"Feature","properties":{"n":"Streatham","r":3,"s":194},"geometry":{"type":"Point","coordinates":[-0.1318,51.429]}},{"type":"Feature","properties":{"n":"Bootle","r":3,"s":195},"geometry":{"type":"Point","coordinates":[-3.0167,53.4667]}},{"type":"Feature","properties":{"n":"Bebington","r":3,"s":196},"geometry":{"type":"Point","coordinates":[-3.0167,53.35]}},{"type":"Feature","properties":{"n":"Kidderminster","r":3,"s":197},"geometry":{"type":"Point","coordinates":[-2.25,52.3882]}},{"type":"Feature","properties":{"n":"Morley","r":3,"s":198},"geometry":{"type":"Point","coordinates":[-1.5988,53.7401]}},{"type":"Feature","properties":{"n":"Stourbridge","r":3,"s":199},"geometry":{"type":"Point","coordinates":[-2.1432,52.4561]}},{"type":"Feature","properties":{"n":"Livingston","r":3,"s":200},"geometry":{"type":"Point","coordinates":[-3.5226,55.9029]}},{"type":"Feature","properties":{"n":"Castlereagh","r":3,"s":201},"geometry":{"type":"Point","coordinates":[-5.8847,54.5735]}},{"type":"Feature","properties":{"n":"Kettering","r":3,"s":202},"geometry":{"type":"Point","coordinates":[-0.7257,52.3984]}},{"type":"Feature","properties":{"n":"Wellingborough","r":3,"s":203},"geometry":{"type":"Point","coordinates":[-0.6945,52.3027]}},{"type":"Feature","properties":{"n":"Barrow in Furness","r":3,"s":204},"geometry":{"type":"Point","coordinates":[-3.2276,54.1109]}},{"type":"Feature","properties":{"n":"Canterbury","r":3,"s":205},"geometry":{"type":"Point","coordinates":[1.0799,51.279]}},{"type":"Feature","properties":{"n":"Dunfermline","r":3,"s":206},"geometry":{"type":"Point","coordinates":[-3.4589,56.0716]}},{"type":"Feature","properties":{"n":"Huyton","r":3,"s":207},"geometry":{"type":"Point","coordinates":[-2.8394,53.4115]}},{"type":"Feature","properties":{"n":"Barry","r":3,"s":208},"geometry":{"type":"Point","coordinates":[-3.2838,51.3998]}},{"type":"Feature","properties":{"n":"Meikle Earnock","r":3,"s":209},"geometry":{"type":"Point","coordinates":[-4.0333,55.75]}},{"type":"Feature","properties":{"n":"Hamilton","r":3,"s":210},"geometry":{"type":"Point","coordinates":[-4.0333,55.7667]}},{"type":"Feature","properties":{"n":"Sittingbourne","r":3,"s":211},"geometry":{"type":"Point","coordinates":[0.7328,51.3413]}},{"type":"Feature","properties":{"n":"Macclesfield","r":3,"s":212},"geometry":{"type":"Point","coordinates":[-2.1256,53.2602]}},{"type":"Feature","properties":{"n":"Gravesend","r":3,"s":213},"geometry":{"type":"Point","coordinates":[0.3711,51.4421]}},{"type":"Feature","properties":{"n":"Eastleigh","r":3,"s":214},"geometry":{"type":"Point","coordinates":[-1.35,50.9667]}},{"type":"Feature","properties":{"n":"Smethwick","r":3,"s":215},"geometry":{"type":"Point","coordinates":[-1.9674,52.4927]}},{"type":"Feature","properties":{"n":"Braintree","r":3,"s":216},"geometry":{"type":"Point","coordinates":[0.5529,51.8782]}},{"type":"Feature","properties":{"n":"Weymouth","r":3,"s":217},"geometry":{"type":"Point","coordinates":[-2.4599,50.6145]}},{"type":"Feature","properties":{"n":"Brentwood","r":3,"s":218},"geometry":{"type":"Point","coordinates":[0.3056,51.6213]}},{"type":"Feature","properties":{"n":"Esher","r":3,"s":219},"geometry":{"type":"Point","coordinates":[-0.3669,51.3697]}},{"type":"Feature","properties":{"n":"Dunstable","r":3,"s":220},"geometry":{"type":"Point","coordinates":[-0.5229,51.8857]}},{"type":"Feature","properties":{"n":"Morecambe","r":3,"s":221},"geometry":{"type":"Point","coordinates":[-2.8611,54.0684]}},{"type":"Feature","properties":{"n":"Redhill","r":3,"s":222},"geometry":{"type":"Point","coordinates":[-0.1704,51.2405]}},{"type":"Feature","properties":{"n":"Welwyn Garden City","r":3,"s":223},"geometry":{"type":"Point","coordinates":[-0.2069,51.8017]}},{"type":"Feature","properties":{"n":"Horsham","r":3,"s":224},"geometry":{"type":"Point","coordinates":[-0.3276,51.0631]}},{"type":"Feature","properties":{"n":"Dartford","r":3,"s":225},"geometry":{"type":"Point","coordinates":[0.2142,51.4466]}},{"type":"Feature","properties":{"n":"Staines","r":3,"s":226},"geometry":{"type":"Point","coordinates":[-0.5061,51.4309]}},{"type":"Feature","properties":{"n":"Royal Leamington Spa","r":3,"s":227},"geometry":{"type":"Point","coordinates":[-1.52,52.2852]}},{"type":"Feature","properties":{"n":"Hinckley","r":3,"s":228},"geometry":{"type":"Point","coordinates":[-1.3761,52.5389]}},{"type":"Feature","properties":{"n":"Clacton-on-Sea","r":3,"s":229},"geometry":{"type":"Point","coordinates":[1.156,51.7897]}},{"type":"Feature","properties":{"n":"Cumbernauld","r":3,"s":230},"geometry":{"type":"Point","coordinates":[-3.9905,55.9468]}},{"type":"Feature","properties":{"n":"Kirkcaldy","r":3,"s":231},"geometry":{"type":"Point","coordinates":[-3.16,56.1168]}},{"type":"Feature","properties":{"n":"Bletchley","r":3,"s":232},"geometry":{"type":"Point","coordinates":[-0.7347,51.9933]}},{"type":"Feature","properties":{"n":"Yeovil","r":3,"s":233},"geometry":{"type":"Point","coordinates":[-2.6321,50.9416]}},{"type":"Feature","properties":{"n":"Keighley","r":3,"s":234},"geometry":{"type":"Point","coordinates":[-1.9066,53.8679]}},{"type":"Feature","properties":{"n":"Altrincham","r":3,"s":235},"geometry":{"type":"Point","coordinates":[-2.3485,53.3875]}},{"type":"Feature","properties":{"n":"Bridgend","r":3,"s":236},"geometry":{"type":"Point","coordinates":[-3.5772,51.5058]}},{"type":"Feature","properties":{"n":"Llanelli","r":3,"s":237},"geometry":{"type":"Point","coordinates":[-4.1619,51.682]}},{"type":"Feature","properties":{"n":"Willenhall","r":3,"s":238},"geometry":{"type":"Point","coordinates":[-2.0593,52.5851]}},{"type":"Feature","properties":{"n":"Eltham","r":3,"s":239},"geometry":{"type":"Point","coordinates":[0.0522,51.4506]}},{"type":"Feature","properties":{"n":"South Benfleet","r":3,"s":240},"geometry":{"type":"Point","coordinates":[0.5596,51.553]}},{"type":"Feature","properties":{"n":"Banbury","r":3,"s":241},"geometry":{"type":"Point","coordinates":[-1.3422,52.0632]}},{"type":"Feature","properties":{"n":"Cwmbran","r":3,"s":242},"geometry":{"type":"Point","coordinates":[-3.0228,51.6545]}},{"type":"Feature","properties":{"n":"Morden","r":3,"s":243},"geometry":{"type":"Point","coordinates":[-0.1984,51.3982]}},{"type":"Feature","properties":{"n":"Long Eaton","r":3,"s":244},"geometry":{"type":"Point","coordinates":[-1.2714,52.8986]}},{"type":"Feature","properties":{"n":"Inverness","r":3,"s":245},"geometry":{"type":"Point","coordinates":[-4.224,57.4791]}},{"type":"Feature","properties":{"n":"Durham","r":3,"s":246},"geometry":{"type":"Point","coordinates":[-1.5757,54.7768]}},{"type":"Feature","properties":{"n":"Northwich","r":3,"s":247},"geometry":{"type":"Point","coordinates":[-2.5202,53.2588]}},{"type":"Feature","properties":{"n":"Perth","r":3,"s":248},"geometry":{"type":"Point","coordinates":[-3.4314,56.3952]}},{"type":"Feature","properties":{"n":"Lancaster","r":3,"s":249},"geometry":{"type":"Point","coordinates":[-2.7999,54.0465]}},{"type":"Feature","properties":{"n":"Tipton","r":3,"s":250},"geometry":{"type":"Point","coordinates":[-2.0677,52.5296]}},{"type":"Feature","properties":{"n":"Kilmarnock","r":3,"s":251},"geometry":{"type":"Point","coordinates":[-4.4958,55.6117]}},{"type":"Feature","properties":{"n":"Dumfries","r":3,"s":252},"geometry":{"type":"Point","coordinates":[-3.6114,55.0696]}},{"type":"Feature","properties":{"n":"Banstead","r":3,"s":253},"geometry":{"type":"Point","coordinates":[-0.2069,51.3223]}},{"type":"Feature","properties":{"n":"Ayr","r":3,"s":254},"geometry":{"type":"Point","coordinates":[-4.6339,55.4627]}},{"type":"Feature","properties":{"n":"Neath","r":3,"s":255},"geometry":{"type":"Point","coordinates":[-3.8044,51.6632]}},{"type":"Feature","properties":{"n":"King's Lynn","r":3,"s":256},"geometry":{"type":"Point","coordinates":[0.3952,52.7517]}},{"type":"Feature","properties":{"n":"Winchester","r":3,"s":257},"geometry":{"type":"Point","coordinates":[-1.3187,51.0651]}},{"type":"Feature","properties":{"n":"Middleton","r":3,"s":258},"geometry":{"type":"Point","coordinates":[-2.2,53.55]}},{"type":"Feature","properties":{"n":"Havant","r":3,"s":259},"geometry":{"type":"Point","coordinates":[-0.9856,50.8567]}},{"type":"Feature","properties":{"n":"Kirkby","r":3,"s":260},"geometry":{"type":"Point","coordinates":[-2.8921,53.4814]}},{"type":"Feature","properties":{"n":"Carshalton","r":3,"s":261},"geometry":{"type":"Point","coordinates":[-0.1676,51.3683]}},{"type":"Feature","properties":{"n":"Boston","r":3,"s":262},"geometry":{"type":"Point","coordinates":[-0.0266,52.9763]}},{"type":"Feature","properties":{"n":"Castleford","r":3,"s":263},"geometry":{"type":"Point","coordinates":[-1.3626,53.7259]}},{"type":"Feature","properties":{"n":"Catford","r":3,"s":264},"geometry":{"type":"Point","coordinates":[-0.0204,51.4449]}},{"type":"Feature","properties":{"n":"Salisbury","r":3,"s":265},"geometry":{"type":"Point","coordinates":[-1.7957,51.0693]}},{"type":"Feature","properties":{"n":"Worksop","r":3,"s":266},"geometry":{"type":"Point","coordinates":[-1.124,53.3018]}},{"type":"Feature","properties":{"n":"Pontefract","r":3,"s":267},"geometry":{"type":"Point","coordinates":[-1.3127,53.6911]}},{"type":"Feature","properties":{"n":"Grantham","r":3,"s":268},"geometry":{"type":"Point","coordinates":[-0.6418,52.9115]}},{"type":"Feature","properties":{"n":"Willesden","r":3,"s":269},"geometry":{"type":"Point","coordinates":[-0.2333,51.5333]}},{"type":"Feature","properties":{"n":"Coatbridge","r":3,"s":270},"geometry":{"type":"Point","coordinates":[-4.0247,55.8622]}},{"type":"Feature","properties":{"n":"Merthyr Tydfil","r":3,"s":271},"geometry":{"type":"Point","coordinates":[-3.3778,51.7479]}},{"type":"Feature","properties":{"n":"Great Sankey","r":3,"s":272},"geometry":{"type":"Point","coordinates":[-2.6399,53.3923]}},{"type":"Feature","properties":{"n":"Bexhill-on-Sea","r":3,"s":273},"geometry":{"type":"Point","coordinates":[0.4709,50.8502]}},{"type":"Feature","properties":{"n":"Cheshunt","r":3,"s":274},"geometry":{"type":"Point","coordinates":[-0.0303,51.7002]}},{"type":"Feature","properties":{"n":"Ashton-under-Lyne","r":3,"s":275},"geometry":{"type":"Point","coordinates":[-2.0989,53.4888]}},{"type":"Feature","properties":{"n":"Leigh","r":3,"s":276},"geometry":{"type":"Point","coordinates":[-2.5197,53.4964]}},{"type":"Feature","properties":{"n":"Leatherhead","r":3,"s":277},"geometry":{"type":"Point","coordinates":[-0.3338,51.2965]}},{"type":"Feature","properties":{"n":"Newark on Trent","r":3,"s":278},"geometry":{"type":"Point","coordinates":[-0.8167,53.0667]}},{"type":"Feature","properties":{"n":"Wallsend","r":3,"s":279},"geometry":{"type":"Point","coordinates":[-1.534,54.9911]}},{"type":"Feature","properties":{"n":"Leighton Buzzard","r":3,"s":280},"geometry":{"type":"Point","coordinates":[-0.658,51.9172]}},{"type":"Feature","properties":{"n":"Lytham St Annes","r":3,"s":281},"geometry":{"type":"Point","coordinates":[-2.997,53.7426]}},{"type":"Feature","properties":{"n":"Redruth","r":3,"s":282},"geometry":{"type":"Point","coordinates":[-5.2243,50.2332]}},{"type":"Feature","properties":{"n":"Canning Town","r":3,"s":283},"geometry":{"type":"Point","coordinates":[0.0195,51.5136]}},{"type":"Feature","properties":{"n":"Andover","r":3,"s":284},"geometry":{"type":"Point","coordinates":[-1.4939,51.2114]}},{"type":"Feature","properties":{"n":"Fareham","r":3,"s":285},"geometry":{"type":"Point","coordinates":[-1.1793,50.8516]}},{"type":"Feature","properties":{"n":"Ramsgate","r":3,"s":286},"geometry":{"type":"Point","coordinates":[1.418,51.3357]}},{"type":"Feature","properties":{"n":"Stretford","r":3,"s":287},"geometry":{"type":"Point","coordinates":[-2.3167,53.45]}},{"type":"Feature","properties":{"n":"Urmston","r":3,"s":288},"geometry":{"type":"Point","coordinates":[-2.3542,53.4485]}},{"type":"Feature","properties":{"n":"Dover","r":3,"s":289},"geometry":{"type":"Point","coordinates":[1.3126,51.126]}},{"type":"Feature","properties":{"n":"Coity","r":3,"s":290},"geometry":{"type":"Point","coordinates":[-3.5553,51.522]}},{"type":"Feature","properties":{"n":"Newburn","r":3,"s":291},"geometry":{"type":"Point","coordinates":[-1.7442,54.9876]}},{"type":"Feature","properties":{"n":"Greenock","r":3,"s":292},"geometry":{"type":"Point","coordinates":[-4.7612,55.9484]}},{"type":"Feature","properties":{"n":"Bury St Edmunds","r":3,"s":293},"geometry":{"type":"Point","coordinates":[0.7111,52.2463]}},{"type":"Feature","properties":{"n":"Bridgwater","r":3,"s":294},"geometry":{"type":"Point","coordinates":[-3.0036,51.1284]}},{"type":"Feature","properties":{"n":"Hatfield","r":3,"s":295},"geometry":{"type":"Point","coordinates":[-0.2242,51.7634]}},{"type":"Feature","properties":{"n":"Wokingham","r":3,"s":296},"geometry":{"type":"Point","coordinates":[-0.8357,51.4112]}},{"type":"Feature","properties":{"n":"Welling","r":3,"s":297},"geometry":{"type":"Point","coordinates":[0.1076,51.4625]}},{"type":"Feature","properties":{"n":"Ilkeston","r":3,"s":298},"geometry":{"type":"Point","coordinates":[-1.3095,52.9706]}},{"type":"Feature","properties":{"n":"Trowbridge","r":3,"s":299},"geometry":{"type":"Point","coordinates":[-2.2086,51.3189]}},{"type":"Feature","properties":{"n":"Bishops Stortford","r":3,"s":300},"geometry":{"type":"Point","coordinates":[0.1587,51.8711]}},{"type":"Feature","properties":{"n":"Prescot","r":3,"s":301},"geometry":{"type":"Point","coordinates":[-2.8003,53.4295]}},{"type":"Feature","properties":{"n":"Kingswood","r":3,"s":302},"geometry":{"type":"Point","coordinates":[-2.5083,51.4528]}},{"type":"Feature","properties":{"n":"Aldershot","r":3,"s":303},"geometry":{"type":"Point","coordinates":[-0.7639,51.2483]}},{"type":"Feature","properties":{"n":"Bloxwich","r":3,"s":304},"geometry":{"type":"Point","coordinates":[-2.0043,52.6181]}},{"type":"Feature","properties":{"n":"North Shields","r":3,"s":305},"geometry":{"type":"Point","coordinates":[-1.4492,55.0165]}},{"type":"Feature","properties":{"n":"Shepherds Bush","r":3,"s":306},"geometry":{"type":"Point","coordinates":[-0.2211,51.505]}},{"type":"Feature","properties":{"n":"Batley","r":3,"s":307},"geometry":{"type":"Point","coordinates":[-1.6337,53.7029]}},{"type":"Feature","properties":{"n":"Cleethorpes","r":3,"s":308},"geometry":{"type":"Point","coordinates":[-0.0323,53.5605]}},{"type":"Feature","properties":{"n":"Skelmersdale","r":3,"s":309},"geometry":{"type":"Point","coordinates":[-2.7735,53.5502]}},{"type":"Feature","properties":{"n":"Fleet","r":3,"s":310},"geometry":{"type":"Point","coordinates":[-0.8333,51.2833]}},{"type":"Feature","properties":{"n":"Abingdon","r":3,"s":311},"geometry":{"type":"Point","coordinates":[-1.2828,51.6711]}},{"type":"Feature","properties":{"n":"Glenrothes","r":3,"s":312},"geometry":{"type":"Point","coordinates":[-3.1732,56.1951]}},{"type":"Feature","properties":{"n":"Canvey Island","r":3,"s":313},"geometry":{"type":"Point","coordinates":[0.5809,51.522]}},{"type":"Feature","properties":{"n":"Surbiton","r":3,"s":314},"geometry":{"type":"Point","coordinates":[-0.2983,51.3915]}},{"type":"Feature","properties":{"n":"Whitley Bay","r":3,"s":315},"geometry":{"type":"Point","coordinates":[-1.4471,55.0397]}},{"type":"Feature","properties":{"n":"Greenford","r":3,"s":316},"geometry":{"type":"Point","coordinates":[-0.3551,51.5287]}},{"type":"Feature","properties":{"n":"Stirling","r":3,"s":317},"geometry":{"type":"Point","coordinates":[-3.9368,56.119]}},{"type":"Feature","properties":{"n":"Arnold","r":3,"s":318},"geometry":{"type":"Point","coordinates":[-1.1333,53.0]}},{"type":"Feature","properties":{"n":"Coalville","r":3,"s":319},"geometry":{"type":"Point","coordinates":[-1.3702,52.7225]}},{"type":"Feature","properties":{"n":"Leyland","r":3,"s":320},"geometry":{"type":"Point","coordinates":[-2.6876,53.6979]}},{"type":"Feature","properties":{"n":"Chadderton","r":3,"s":321},"geometry":{"type":"Point","coordinates":[-2.1398,53.5448]}},{"type":"Feature","properties":{"n":"Rushden","r":3,"s":322},"geometry":{"type":"Point","coordinates":[-0.6018,52.2893]}},{"type":"Feature","properties":{"n":"Yeadon","r":3,"s":323},"geometry":{"type":"Point","coordinates":[-1.6874,53.8644]}},{"type":"Feature","properties":{"n":"Blyth","r":3,"s":324},"geometry":{"type":"Point","coordinates":[-1.5086,55.1271]}},{"type":"Feature","properties":{"n":"Eccles","r":3,"s":325},"geometry":{"type":"Point","coordinates":[-2.3333,53.4833]}},{"type":"Feature","properties":{"n":"Warwick","r":3,"s":326},"geometry":{"type":"Point","coordinates":[-1.5833,52.2833]}},{"type":"Feature","properties":{"n":"Wigston Magna","r":3,"s":327},"geometry":{"type":"Point","coordinates":[-1.0925,52.5813]}},{"type":"Feature","properties":{"n":"Redcar","r":3,"s":328},"geometry":{"type":"Point","coordinates":[-1.06,54.6166]}},{"type":"Feature","properties":{"n":"Heston","r":3,"s":329},"geometry":{"type":"Point","coordinates":[-0.3758,51.4836]}},{"type":"Feature","properties":{"n":"Farnham","r":3,"s":330},"geometry":{"type":"Point","coordinates":[-0.8005,51.2144]}},{"type":"Feature","properties":{"n":"Chester-le-Street","r":3,"s":331},"geometry":{"type":"Point","coordinates":[-1.5741,54.8586]}},{"type":"Feature","properties":{"n":"Great Malvern","r":3,"s":332},"geometry":{"type":"Point","coordinates":[-2.3251,52.1116]}},{"type":"Feature","properties":{"n":"Houghton-Le-Spring","r":3,"s":333},"geometry":{"type":"Point","coordinates":[-1.4643,54.8403]}},{"type":"Feature","properties":{"n":"Stratford","r":3,"s":334},"geometry":{"type":"Point","coordinates":[0.0,51.5333]}},{"type":"Feature","properties":{"n":"West Bridgford","r":3,"s":335},"geometry":{"type":"Point","coordinates":[-1.1254,52.9298]}},{"type":"Feature","properties":{"n":"Newton Abbot","r":3,"s":336},"geometry":{"type":"Point","coordinates":[-3.6119,50.5286]}},{"type":"Feature","properties":{"n":"Mangotsfield","r":3,"s":337},"geometry":{"type":"Point","coordinates":[-2.504,51.4878]}},{"type":"Feature","properties":{"n":"Sutton in Ashfield","r":3,"s":338},"geometry":{"type":"Point","coordinates":[-1.2613,53.1254]}},{"type":"Feature","properties":{"n":"Airdrie","r":3,"s":339},"geometry":{"type":"Point","coordinates":[-3.9802,55.866]}},{"type":"Feature","properties":{"n":"Billericay","r":3,"s":340},"geometry":{"type":"Point","coordinates":[0.4196,51.6287]}},{"type":"Feature","properties":{"n":"Borehamwood","r":3,"s":341},"geometry":{"type":"Point","coordinates":[-0.2776,51.6547]}},{"type":"Feature","properties":{"n":"Exmouth","r":3,"s":342},"geometry":{"type":"Point","coordinates":[-3.4023,50.6172]}},{"type":"Feature","properties":{"n":"Tonbridge","r":3,"s":343},"geometry":{"type":"Point","coordinates":[0.2736,51.1953]}},{"type":"Feature","properties":{"n":"Tyldesley","r":3,"s":344},"geometry":{"type":"Point","coordinates":[-2.4675,53.5139]}},{"type":"Feature","properties":{"n":"Hyde","r":3,"s":345},"geometry":{"type":"Point","coordinates":[-2.0794,53.4513]}},{"type":"Feature","properties":{"n":"Chippenham","r":3,"s":346},"geometry":{"type":"Point","coordinates":[-2.1247,51.46]}},{"type":"Feature","properties":{"n":"Billingham","r":3,"s":347},"geometry":{"type":"Point","coordinates":[-1.2903,54.5888]}},{"type":"Feature","properties":{"n":"Pontypool","r":3,"s":348},"geometry":{"type":"Point","coordinates":[-3.0444,51.7011]}},{"type":"Feature","properties":{"n":"Walkden","r":3,"s":349},"geometry":{"type":"Point","coordinates":[-2.4,53.5167]}},{"type":"Feature","properties":{"n":"Falkirk","r":3,"s":350},"geometry":{"type":"Point","coordinates":[-3.7854,56.0021]}},{"type":"Feature","properties":{"n":"Hitchin","r":3,"s":351},"geometry":{"type":"Point","coordinates":[-0.285,51.9492]}},{"type":"Feature","properties":{"n":"Briton Ferry","r":3,"s":352},"geometry":{"type":"Point","coordinates":[-3.819,51.6311]}},{"type":"Feature","properties":{"n":"Hoddesdon","r":3,"s":353},"geometry":{"type":"Point","coordinates":[-0.0114,51.7615]}},{"type":"Feature","properties":{"n":"Bridlington","r":3,"s":354},"geometry":{"type":"Point","coordinates":[-0.1919,54.0831]}},{"type":"Feature","properties":{"n":"Accrington","r":3,"s":355},"geometry":{"type":"Point","coordinates":[-2.3586,53.7538]}},{"type":"Feature","properties":{"n":"Bentley","r":3,"s":356},"geometry":{"type":"Point","coordinates":[-1.15,53.5333]}},{"type":"Feature","properties":{"n":"Bromsgrove","r":3,"s":357},"geometry":{"type":"Point","coordinates":[-2.0598,52.3357]}},{"type":"Feature","properties":{"n":"Lichfield","r":3,"s":358},"geometry":{"type":"Point","coordinates":[-1.8255,52.6815]}},{"type":"Feature","properties":{"n":"Swadlincote","r":3,"s":359},"geometry":{"type":"Point","coordinates":[-1.5574,52.774]}},{"type":"Feature","properties":{"n":"Felling","r":3,"s":360},"geometry":{"type":"Point","coordinates":[-1.5715,54.953]}},{"type":"Feature","properties":{"n":"Totton","r":3,"s":361},"geometry":{"type":"Point","coordinates":[-1.4904,50.9188]}},{"type":"Feature","properties":{"n":"Irvine","r":3,"s":362},"geometry":{"type":"Point","coordinates":[-4.6551,55.6194]}},{"type":"Feature","properties":{"n":"Letchworth Garden City","r":3,"s":363},"geometry":{"type":"Point","coordinates":[-0.2266,51.9794]}},{"type":"Feature","properties":{"n":"Chorley","r":3,"s":364},"geometry":{"type":"Point","coordinates":[-2.6167,53.65]}},{"type":"Feature","properties":{"n":"Bicester","r":3,"s":365},"geometry":{"type":"Point","coordinates":[-1.1536,51.9]}},{"type":"Feature","properties":{"n":"Haywards Heath","r":3,"s":366},"geometry":{"type":"Point","coordinates":[-0.1031,50.9977]}},{"type":"Feature","properties":{"n":"Wednesfield","r":3,"s":367},"geometry":{"type":"Point","coordinates":[-2.0851,52.5963]}},{"type":"Feature","properties":{"n":"Loughton","r":3,"s":368},"geometry":{"type":"Point","coordinates":[-2.5667,52.4333]}},{"type":"Feature","properties":{"n":"Cramlington","r":3,"s":369},"geometry":{"type":"Point","coordinates":[-1.586,55.0865]}},{"type":"Feature","properties":{"n":"Ebbw Vale","r":3,"s":370},"geometry":{"type":"Point","coordinates":[-3.2079,51.7771]}},{"type":"Feature","properties":{"n":"Newbury","r":3,"s":371},"geometry":{"type":"Point","coordinates":[-1.3247,51.4015]}},{"type":"Feature","properties":{"n":"North Watford","r":3,"s":372},"geometry":{"type":"Point","coordinates":[-0.3945,51.6807]}},{"type":"Feature","properties":{"n":"Portadown","r":3,"s":373},"geometry":{"type":"Point","coordinates":[-6.4443,54.423]}},{"type":"Feature","properties":{"n":"Brighouse","r":3,"s":374},"geometry":{"type":"Point","coordinates":[-1.7843,53.7032]}},{"type":"Feature","properties":{"n":"Motherwell","r":3,"s":375},"geometry":{"type":"Point","coordinates":[-3.9919,55.7892]}},{"type":"Feature","properties":{"n":"Darwen","r":3,"s":376},"geometry":{"type":"Point","coordinates":[-2.4649,53.698]}},{"type":"Feature","properties":{"n":"Wisbech","r":3,"s":377},"geometry":{"type":"Point","coordinates":[0.1594,52.6662]}},{"type":"Feature","properties":{"n":"Rayleigh","r":3,"s":378},"geometry":{"type":"Point","coordinates":[0.6046,51.5857]}},{"type":"Feature","properties":{"n":"Whitstable","r":3,"s":379},"geometry":{"type":"Point","coordinates":[1.0257,51.3607]}},{"type":"Feature","properties":{"n":"Lower Earley","r":3,"s":380},"geometry":{"type":"Point","coordinates":[-0.9198,51.4271]}},{"type":"Feature","properties":{"n":"Falmouth","r":3,"s":381},"geometry":{"type":"Point","coordinates":[-5.0711,50.1544]}},{"type":"Feature","properties":{"n":"Thamesmead","r":3,"s":382},"geometry":{"type":"Point","coordinates":[0.1198,51.5037]}},{"type":"Feature","properties":{"n":"Chichester","r":3,"s":383},"geometry":{"type":"Point","coordinates":[-0.78,50.8367]}},{"type":"Feature","properties":{"n":"Barnstaple","r":3,"s":384},"geometry":{"type":"Point","coordinates":[-4.0581,51.0802]}},{"type":"Feature","properties":{"n":"Windsor","r":3,"s":385},"geometry":{"type":"Point","coordinates":[-0.6,51.4833]}},{"type":"Feature","properties":{"n":"Prestwich","r":3,"s":386},"geometry":{"type":"Point","coordinates":[-2.2833,53.5333]}},{"type":"Feature","properties":{"n":"Epsom","r":3,"s":387},"geometry":{"type":"Point","coordinates":[-0.2701,51.3305]}},{"type":"Feature","properties":{"n":"Christchurch","r":3,"s":388},"geometry":{"type":"Point","coordinates":[-1.7813,50.7358]}},{"type":"Feature","properties":{"n":"Stanley","r":3,"s":389},"geometry":{"type":"Point","coordinates":[-1.6985,54.868]}},{"type":"Feature","properties":{"n":"Pontypridd","r":3,"s":390},"geometry":{"type":"Point","coordinates":[-3.3421,51.6021]}},{"type":"Feature","properties":{"n":"Aberdare","r":3,"s":391},"geometry":{"type":"Point","coordinates":[-3.4492,51.7144]}},{"type":"Feature","properties":{"n":"Bedworth","r":3,"s":392},"geometry":{"type":"Point","coordinates":[-1.4691,52.4791]}},{"type":"Feature","properties":{"n":"Caerphilly","r":3,"s":393},"geometry":{"type":"Point","coordinates":[-3.218,51.5745]}},{"type":"Feature","properties":{"n":"Ruislip","r":3,"s":394},"geometry":{"type":"Point","coordinates":[-0.4234,51.5734]}},{"type":"Feature","properties":{"n":"Rutherglen","r":3,"s":395},"geometry":{"type":"Point","coordinates":[-4.2138,55.8289]}},{"type":"Feature","properties":{"n":"Deal","r":3,"s":396},"geometry":{"type":"Point","coordinates":[1.4028,51.2232]}},{"type":"Feature","properties":{"n":"Saint Neots","r":3,"s":397},"geometry":{"type":"Point","coordinates":[-0.2667,52.2167]}},{"type":"Feature","properties":{"n":"Cambuslang","r":3,"s":398},"geometry":{"type":"Point","coordinates":[-4.161,55.8097]}},{"type":"Feature","properties":{"n":"Harpenden","r":3,"s":399},"geometry":{"type":"Point","coordinates":[-0.3571,51.8168]}},{"type":"Feature","properties":{"n":"Burgess Hill","r":3,"s":400},"geometry":{"type":"Point","coordinates":[-0.1329,50.9584]}},{"type":"Feature","properties":{"n":"Beverley","r":3,"s":401},"geometry":{"type":"Point","coordinates":[-0.4233,53.8459]}},{"type":"Feature","properties":{"n":"Spalding","r":3,"s":402},"geometry":{"type":"Point","coordinates":[-0.1514,52.7871]}},{"type":"Feature","properties":{"n":"Stratford-upon-Avon","r":3,"s":403},"geometry":{"type":"Point","coordinates":[-1.7073,52.1917]}},{"type":"Feature","properties":{"n":"Winsford","r":3,"s":404},"geometry":{"type":"Point","coordinates":[-2.524,53.1915]}},{"type":"Feature","properties":{"n":"Camberley","r":3,"s":405},"geometry":{"type":"Point","coordinates":[-0.7426,51.337]}},{"type":"Feature","properties":{"n":"Wishaw","r":3,"s":406},"geometry":{"type":"Point","coordinates":[-3.9167,55.7667]}},{"type":"Feature","properties":{"n":"Barnet","r":3,"s":407},"geometry":{"type":"Point","coordinates":[-0.2,51.65]}},{"type":"Feature","properties":{"n":"Radcliffe","r":4,"s":408},"geometry":{"type":"Point","coordinates":[-2.3245,53.5618]}},{"type":"Feature","properties":{"n":"Hucknall","r":4,"s":409},"geometry":{"type":"Point","coordinates":[-1.2,53.0333]}},{"type":"Feature","properties":{"n":"Egham","r":4,"s":410},"geometry":{"type":"Point","coordinates":[-0.5524,51.4316]}},{"type":"Feature","properties":{"n":"Stanford-le-Hope","r":4,"s":411},"geometry":{"type":"Point","coordinates":[0.4342,51.5227]}},{"type":"Feature","properties":{"n":"Sevenoaks","r":4,"s":412},"geometry":{"type":"Point","coordinates":[0.1888,51.2727]}},{"type":"Feature","properties":{"n":"Kidsgrove","r":4,"s":413},"geometry":{"type":"Point","coordinates":[-2.2378,53.0869]}},{"type":"Feature","properties":{"n":"Jarrow","r":4,"s":414},"geometry":{"type":"Point","coordinates":[-1.4842,54.9804]}},{"type":"Feature","properties":{"n":"Newtownards","r":4,"s":415},"geometry":{"type":"Point","coordinates":[-5.6909,54.5924]}},{"type":"Feature","properties":{"n":"Didcot","r":4,"s":416},"geometry":{"type":"Point","coordinates":[-1.2421,51.6093]}},{"type":"Feature","properties":{"n":"Nelson","r":4,"s":417},"geometry":{"type":"Point","coordinates":[-2.2,53.8333]}},{"type":"Feature","properties":{"n":"Colwyn Bay","r":4,"s":418},"geometry":{"type":"Point","coordinates":[-3.7267,53.2948]}},{"type":"Feature","properties":{"n":"Burntwood","r":4,"s":419},"geometry":{"type":"Point","coordinates":[-1.9276,52.6808]}},{"type":"Feature","properties":{"n":"Carrickfergus","r":4,"s":420},"geometry":{"type":"Point","coordinates":[-5.8058,54.7158]}},{"type":"Feature","properties":{"n":"Kendal","r":4,"s":421},"geometry":{"type":"Point","coordinates":[-2.7476,54.3268]}},{"type":"Feature","properties":{"n":"Consett","r":4,"s":422},"geometry":{"type":"Point","coordinates":[-1.8316,54.854]}},{"type":"Feature","properties":{"n":"Witney","r":4,"s":423},"geometry":{"type":"Point","coordinates":[-1.4854,51.7836]}},{"type":"Feature","properties":{"n":"Heswall","r":4,"s":424},"geometry":{"type":"Point","coordinates":[-3.0965,53.3273]}},{"type":"Feature","properties":{"n":"Cheadle Hulme","r":4,"s":425},"geometry":{"type":"Point","coordinates":[-2.1897,53.3761]}},{"type":"Feature","properties":{"n":"Ballymena","r":4,"s":426},"geometry":{"type":"Point","coordinates":[-6.2763,54.8636]}},{"type":"Feature","properties":{"n":"Bideford","r":4,"s":427},"geometry":{"type":"Point","coordinates":[-4.2083,51.0168]}},{"type":"Feature","properties":{"n":"Rochester","r":4,"s":428},"geometry":{"type":"Point","coordinates":[0.5055,51.3876]}},{"type":"Feature","properties":{"n":"Shipley","r":4,"s":429},"geometry":{"type":"Point","coordinates":[-1.7667,53.8333]}},{"type":"Feature","properties":{"n":"Bearsden","r":4,"s":430},"geometry":{"type":"Point","coordinates":[-4.3328,55.9154]}},{"type":"Feature","properties":{"n":"Wood Green","r":4,"s":431},"geometry":{"type":"Point","coordinates":[-0.1167,51.6]}},{"type":"Feature","properties":{"n":"Bushey","r":4,"s":432},"geometry":{"type":"Point","coordinates":[-0.3605,51.6432]}},{"type":"Feature","properties":{"n":"Newton Mearns","r":4,"s":433},"geometry":{"type":"Point","coordinates":[-4.3334,55.7733]}},{"type":"Feature","properties":{"n":"Daventry","r":4,"s":434},"geometry":{"type":"Point","coordinates":[-1.1607,52.2569]}},{"type":"Feature","properties":{"n":"Brierley Hill","r":4,"s":435},"geometry":{"type":"Point","coordinates":[-2.1214,52.4817]}},{"type":"Feature","properties":{"n":"Muswell Hill","r":4,"s":436},"geometry":{"type":"Point","coordinates":[-0.1421,51.5905]}},{"type":"Feature","properties":{"n":"Sunbury-on-Thames","r":4,"s":437},"geometry":{"type":"Point","coordinates":[-0.4182,51.4042]}},{"type":"Feature","properties":{"n":"Newry","r":4,"s":438},"geometry":{"type":"Point","coordinates":[-6.3374,54.1784]}},{"type":"Feature","properties":{"n":"Melton Mowbray","r":4,"s":439},"geometry":{"type":"Point","coordinates":[-0.8869,52.7659]}},{"type":"Feature","properties":{"n":"Evesham","r":4,"s":440},"geometry":{"type":"Point","coordinates":[-1.9489,52.0924]}},{"type":"Feature","properties":{"n":"Ashington","r":4,"s":441},"geometry":{"type":"Point","coordinates":[-1.5641,55.1772]}},{"type":"Feature","properties":{"n":"Kirkby in Ashfield","r":4,"s":442},"geometry":{"type":"Point","coordinates":[-1.2438,53.0998]}},{"type":"Feature","properties":{"n":"Wickford","r":4,"s":443},"geometry":{"type":"Point","coordinates":[0.5233,51.611]}},{"type":"Feature","properties":{"n":"Burngreave","r":4,"s":444},"geometry":{"type":"Point","coordinates":[-1.4579,53.393]}},{"type":"Feature","properties":{"n":"Denton","r":4,"s":445},"geometry":{"type":"Point","coordinates":[-2.1182,53.4568]}},{"type":"Feature","properties":{"n":"Cleckheaton","r":4,"s":446},"geometry":{"type":"Point","coordinates":[-1.7129,53.724]}},{"type":"Feature","properties":{"n":"Ashford","r":4,"s":447},"geometry":{"type":"Point","coordinates":[-0.4576,51.4317]}},{"type":"Feature","properties":{"n":"Longton","r":4,"s":448},"geometry":{"type":"Point","coordinates":[-2.1333,52.9833]}},{"type":"Feature","properties":{"n":"Haverhill","r":4,"s":449},"geometry":{"type":"Point","coordinates":[0.4389,52.0823]}},{"type":"Feature","properties":{"n":"Maghull","r":4,"s":450},"geometry":{"type":"Point","coordinates":[-2.9412,53.5162]}},{"type":"Feature","properties":{"n":"Aldridge","r":4,"s":451},"geometry":{"type":"Point","coordinates":[-1.9171,52.6055]}},{"type":"Feature","properties":{"n":"Stalybridge","r":4,"s":452},"geometry":{"type":"Point","coordinates":[-2.0591,53.4841]}},{"type":"Feature","properties":{"n":"Highbury","r":4,"s":453},"geometry":{"type":"Point","coordinates":[-0.1,51.55]}},{"type":"Feature","properties":{"n":"East Grinstead","r":4,"s":454},"geometry":{"type":"Point","coordinates":[-0.0061,51.1238]}},{"type":"Feature","properties":{"n":"Flint","r":4,"s":455},"geometry":{"type":"Point","coordinates":[-3.1323,53.2449]}},{"type":"Feature","properties":{"n":"Newton Aycliffe","r":4,"s":456},"geometry":{"type":"Point","coordinates":[-1.5719,54.6184]}},{"type":"Feature","properties":{"n":"Ashton in Makerfield","r":4,"s":457},"geometry":{"type":"Point","coordinates":[-2.65,53.4833]}},{"type":"Feature","properties":{"n":"Portishead","r":4,"s":458},"geometry":{"type":"Point","coordinates":[-2.7697,51.482]}},{"type":"Feature","properties":{"n":"Westhoughton","r":4,"s":459},"geometry":{"type":"Point","coordinates":[-2.5246,53.549]}},{"type":"Feature","properties":{"n":"Fleetwood","r":4,"s":460},"geometry":{"type":"Point","coordinates":[-3.0109,53.9253]}},{"type":"Feature","properties":{"n":"Frome","r":4,"s":461},"geometry":{"type":"Point","coordinates":[-2.3221,51.2283]}},{"type":"Feature","properties":{"n":"Congleton","r":4,"s":462},"geometry":{"type":"Point","coordinates":[-2.2125,53.1631]}},{"type":"Feature","properties":{"n":"Rugeley","r":4,"s":463},"geometry":{"type":"Point","coordinates":[-1.9369,52.7593]}},{"type":"Feature","properties":{"n":"Camden Town","r":4,"s":464},"geometry":{"type":"Point","coordinates":[-0.1433,51.5406]}},{"type":"Feature","properties":{"n":"Bishop Auckland","r":4,"s":465},"geometry":{"type":"Point","coordinates":[-1.6771,54.6555]}},{"type":"Feature","properties":{"n":"Northolt","r":4,"s":466},"geometry":{"type":"Point","coordinates":[-0.3678,51.5485]}},{"type":"Feature","properties":{"n":"Rhyl","r":4,"s":467},"geometry":{"type":"Point","coordinates":[-3.4923,53.3193]}},{"type":"Feature","properties":{"n":"Hertford","r":4,"s":468},"geometry":{"type":"Point","coordinates":[-0.0785,51.7959]}},{"type":"Feature","properties":{"n":"Wilmslow","r":4,"s":469},"geometry":{"type":"Point","coordinates":[-2.2315,53.328]}},{"type":"Feature","properties":{"n":"Staveley","r":4,"s":470},"geometry":{"type":"Point","coordinates":[-1.35,53.2667]}},{"type":"Feature","properties":{"n":"Coleraine","r":4,"s":471},"geometry":{"type":"Point","coordinates":[-6.6667,55.1333]}},{"type":"Feature","properties":{"n":"Farnworth","r":4,"s":472},"geometry":{"type":"Point","coordinates":[-2.4,53.55]}},{"type":"Feature","properties":{"n":"Clydebank","r":4,"s":473},"geometry":{"type":"Point","coordinates":[-4.4057,55.9014]}},{"type":"Feature","properties":{"n":"New Milton","r":4,"s":474},"geometry":{"type":"Point","coordinates":[-1.6658,50.756]}},{"type":"Feature","properties":{"n":"Coulsdon","r":4,"s":475},"geometry":{"type":"Point","coordinates":[-0.1409,51.32]}},{"type":"Feature","properties":{"n":"Crowthorne","r":4,"s":476},"geometry":{"type":"Point","coordinates":[-0.7922,51.3703]}},{"type":"Feature","properties":{"n":"Hawarden","r":4,"s":477},"geometry":{"type":"Point","coordinates":[-3.0258,53.1848]}},{"type":"Feature","properties":{"n":"Thatcham","r":4,"s":478},"geometry":{"type":"Point","coordinates":[-1.2605,51.4037]}},{"type":"Feature","properties":{"n":"Saddleworth","r":4,"s":479},"geometry":{"type":"Point","coordinates":[-2.0046,53.5485]}},{"type":"Feature","properties":{"n":"Rickmansworth","r":4,"s":480},"geometry":{"type":"Point","coordinates":[-0.4772,51.639]}},{"type":"Feature","properties":{"n":"Pudsey","r":4,"s":481},"geometry":{"type":"Point","coordinates":[-1.6613,53.7954]}},{"type":"Feature","properties":{"n":"Rhosllannerchrugog","r":4,"s":482},"geometry":{"type":"Point","coordinates":[-3.0581,53.0097]}},{"type":"Feature","properties":{"n":"Witham","r":4,"s":483},"geometry":{"type":"Point","coordinates":[0.6404,51.8001]}},{"type":"Feature","properties":{"n":"Blackheath","r":4,"s":484},"geometry":{"type":"Point","coordinates":[0.0079,51.4647]}},{"type":"Feature","properties":{"n":"Elgin","r":4,"s":485},"geometry":{"type":"Point","coordinates":[-3.3184,57.6495]}},{"type":"Feature","properties":{"n":"Isleworth","r":4,"s":486},"geometry":{"type":"Point","coordinates":[-0.3425,51.4752]}},{"type":"Feature","properties":{"n":"Hindley","r":4,"s":487},"geometry":{"type":"Point","coordinates":[-2.5833,53.5333]}},{"type":"Feature","properties":{"n":"Pitsea","r":4,"s":488},"geometry":{"type":"Point","coordinates":[0.5086,51.5639]}},{"type":"Feature","properties":{"n":"Chalk Farm","r":4,"s":489},"geometry":{"type":"Point","coordinates":[-0.1499,51.5431]}},{"type":"Feature","properties":{"n":"Newport","r":4,"s":490},"geometry":{"type":"Point","coordinates":[-1.2912,50.7015]}},{"type":"Feature","properties":{"n":"Skegness","r":4,"s":491},"geometry":{"type":"Point","coordinates":[0.3363,53.1436]}},{"type":"Feature","properties":{"n":"Herne Bay","r":4,"s":492},"geometry":{"type":"Point","coordinates":[1.1286,51.373]}},{"type":"Feature","properties":{"n":"Selby","r":4,"s":493},"geometry":{"type":"Point","coordinates":[-1.0667,53.7833]}},{"type":"Feature","properties":{"n":"Thetford","r":4,"s":494},"geometry":{"type":"Point","coordinates":[0.75,52.4167]}},{"type":"Feature","properties":{"n":"Market Harborough","r":4,"s":495},"geometry":{"type":"Point","coordinates":[-0.9205,52.4776]}},{"type":"Feature","properties":{"n":"Newton-le-Willows","r":4,"s":496},"geometry":{"type":"Point","coordinates":[-2.6,53.45]}},{"type":"Feature","properties":{"n":"Vale of Leven","r":4,"s":497},"geometry":{"type":"Point","coordinates":[-4.5793,55.9713]}},{"type":"Feature","properties":{"n":"Felixstowe","r":4,"s":498},"geometry":{"type":"Point","coordinates":[1.3511,51.9637]}},{"type":"Feature","properties":{"n":"St Austell","r":4,"s":499},"geometry":{"type":"Point","coordinates":[-4.7744,50.3425]}},{"type":"Feature","properties":{"n":"Renfrew","r":4,"s":500},"geometry":{"type":"Point","coordinates":[-4.3925,55.872]}},{"type":"Feature","properties":{"n":"Plymstock","r":4,"s":501},"geometry":{"type":"Point","coordinates":[-4.0905,50.36]}},{"type":"Feature","properties":{"n":"Ryde","r":4,"s":502},"geometry":{"type":"Point","coordinates":[-1.1621,50.73]}},{"type":"Feature","properties":{"n":"Ormskirk","r":4,"s":503},"geometry":{"type":"Point","coordinates":[-2.8818,53.5669]}},{"type":"Feature","properties":{"n":"Golborne","r":4,"s":504},"geometry":{"type":"Point","coordinates":[-2.5965,53.4769]}},{"type":"Feature","properties":{"n":"Gosforth","r":4,"s":505},"geometry":{"type":"Point","coordinates":[-1.6167,55.0]}},{"type":"Feature","properties":{"n":"Huntingdon","r":4,"s":506},"geometry":{"type":"Point","coordinates":[-0.1865,52.3305]}},{"type":"Feature","properties":{"n":"Sudbury","r":4,"s":507},"geometry":{"type":"Point","coordinates":[0.7312,52.0389]}},{"type":"Feature","properties":{"n":"Oadby","r":4,"s":508},"geometry":{"type":"Point","coordinates":[-1.0835,52.6062]}},{"type":"Feature","properties":{"n":"Droitwich","r":4,"s":509},"geometry":{"type":"Point","coordinates":[-2.15,52.2667]}},{"type":"Feature","properties":{"n":"Ammanford","r":4,"s":510},"geometry":{"type":"Point","coordinates":[-3.9883,51.7928]}},{"type":"Feature","properties":{"n":"Yate","r":4,"s":511},"geometry":{"type":"Point","coordinates":[-2.4184,51.5407]}},{"type":"Feature","properties":{"n":"Droylsden","r":4,"s":512},"geometry":{"type":"Point","coordinates":[-2.1454,53.48]}},{"type":"Feature","properties":{"n":"Bishopbriggs","r":4,"s":513},"geometry":{"type":"Point","coordinates":[-4.2187,55.9067]}},{"type":"Feature","properties":{"n":"Arbroath","r":4,"s":514},"geometry":{"type":"Point","coordinates":[-2.5874,56.5632]}},{"type":"Feature","properties":{"n":"Musselburgh","r":4,"s":515},"geometry":{"type":"Point","coordinates":[-3.0499,55.9417]}},{"type":"Feature","properties":{"n":"Bathgate","r":4,"s":516},"geometry":{"type":"Point","coordinates":[-3.644,55.902]}},{"type":"Feature","properties":{"n":"Hanworth","r":4,"s":517},"geometry":{"type":"Point","coordinates":[-0.3833,51.4333]}},{"type":"Feature","properties":{"n":"Whitefield","r":4,"s":518},"geometry":{"type":"Point","coordinates":[-2.3,53.55]}},{"type":"Feature","properties":{"n":"Lofthouse","r":4,"s":519},"geometry":{"type":"Point","coordinates":[-1.497,53.7295]}},{"type":"Feature","properties":{"n":"Penarth","r":4,"s":520},"geometry":{"type":"Point","coordinates":[-3.1734,51.4386]}},{"type":"Feature","properties":{"n":"Belper","r":4,"s":521},"geometry":{"type":"Point","coordinates":[-1.4812,53.0233]}},{"type":"Feature","properties":{"n":"Hailsham","r":4,"s":522},"geometry":{"type":"Point","coordinates":[0.2577,50.8622]}},{"type":"Feature","properties":{"n":"Maldon","r":4,"s":523},"geometry":{"type":"Point","coordinates":[0.6746,51.7311]}},{"type":"Feature","properties":{"n":"Formby","r":4,"s":524},"geometry":{"type":"Point","coordinates":[-3.07,53.5584]}},{"type":"Feature","properties":{"n":"Burnham-on-Sea","r":4,"s":525},"geometry":{"type":"Point","coordinates":[-2.9978,51.2386]}},{"type":"Feature","properties":{"n":"Broadstairs","r":4,"s":526},"geometry":{"type":"Point","coordinates":[1.4419,51.3584]}},{"type":"Feature","properties":{"n":"Heanor","r":4,"s":527},"geometry":{"type":"Point","coordinates":[-1.3538,53.0137]}},{"type":"Feature","properties":{"n":"Chapeltown","r":4,"s":528},"geometry":{"type":"Point","coordinates":[-1.4722,53.4651]}},{"type":"Feature","properties":{"n":"Truro","r":4,"s":529},"geometry":{"type":"Point","coordinates":[-5.0544,50.2653]}},{"type":"Feature","properties":{"n":"Faversham","r":4,"s":530},"geometry":{"type":"Point","coordinates":[0.8886,51.3148]}},{"type":"Feature","properties":{"n":"Rawtenstall","r":4,"s":531},"geometry":{"type":"Point","coordinates":[-2.2844,53.7008]}},{"type":"Feature","properties":{"n":"Litherland","r":4,"s":532},"geometry":{"type":"Point","coordinates":[-2.9981,53.4699]}},{"type":"Feature","properties":{"n":"Whitehaven","r":4,"s":533},"geometry":{"type":"Point","coordinates":[-3.5841,54.549]}},{"type":"Feature","properties":{"n":"Swinton","r":4,"s":534},"geometry":{"type":"Point","coordinates":[-2.35,53.5]}},{"type":"Feature","properties":{"n":"Waltham Abbey","r":4,"s":535},"geometry":{"type":"Point","coordinates":[-0.0042,51.687]}},{"type":"Feature","properties":{"n":"Royton","r":4,"s":536},"geometry":{"type":"Point","coordinates":[-2.1227,53.5651]}},{"type":"Feature","properties":{"n":"Walton-on-Thames","r":4,"s":537},"geometry":{"type":"Point","coordinates":[-0.4132,51.3868]}},{"type":"Feature","properties":{"n":"Wellington","r":4,"s":538},"geometry":{"type":"Point","coordinates":[-2.5167,52.7]}},{"type":"Feature","properties":{"n":"Woodford Green","r":4,"s":539},"geometry":{"type":"Point","coordinates":[0.0233,51.6094]}},{"type":"Feature","properties":{"n":"Godalming","r":4,"s":540},"geometry":{"type":"Point","coordinates":[-0.6149,51.1858]}},{"type":"Feature","properties":{"n":"Bartley Green","r":4,"s":541},"geometry":{"type":"Point","coordinates":[-1.9971,52.4353]}},{"type":"Feature","properties":{"n":"Potters Bar","r":4,"s":542},"geometry":{"type":"Point","coordinates":[-0.1784,51.6935]}},{"type":"Feature","properties":{"n":"Seaford","r":4,"s":543},"geometry":{"type":"Point","coordinates":[0.1027,50.7714]}},{"type":"Feature","properties":{"n":"Alfreton","r":4,"s":544},"geometry":{"type":"Point","coordinates":[-1.3838,53.0977]}},{"type":"Feature","properties":{"n":"South Ockendon","r":4,"s":545},"geometry":{"type":"Point","coordinates":[0.2833,51.508]}},{"type":"Feature","properties":{"n":"Kenilworth","r":4,"s":546},"geometry":{"type":"Point","coordinates":[-1.5828,52.3496]}},{"type":"Feature","properties":{"n":"Seaham","r":4,"s":547},"geometry":{"type":"Point","coordinates":[-1.3458,54.839]}},{"type":"Feature","properties":{"n":"Thornaby-on-Tees","r":4,"s":548},"geometry":{"type":"Point","coordinates":[-1.3,54.5333]}},{"type":"Feature","properties":{"n":"Tiverton","r":4,"s":549},"geometry":{"type":"Point","coordinates":[-3.4923,50.9024]}},{"type":"Feature","properties":{"n":"Retford","r":4,"s":550},"geometry":{"type":"Point","coordinates":[-0.9432,53.3221]}},{"type":"Feature","properties":{"n":"Atherton","r":4,"s":551},"geometry":{"type":"Point","coordinates":[-2.4935,53.5237]}},{"type":"Feature","properties":{"n":"Berkhamsted","r":4,"s":552},"geometry":{"type":"Point","coordinates":[-0.5653,51.7604]}},{"type":"Feature","properties":{"n":"Ossett","r":4,"s":553},"geometry":{"type":"Point","coordinates":[-1.5801,53.6798]}},{"type":"Feature","properties":{"n":"Swanley","r":4,"s":554},"geometry":{"type":"Point","coordinates":[0.1732,51.3972]}},{"type":"Feature","properties":{"n":"Reigate","r":4,"s":555},"geometry":{"type":"Point","coordinates":[-0.2058,51.2374]}},{"type":"Feature","properties":{"n":"Rottingdean","r":4,"s":556},"geometry":{"type":"Point","coordinates":[-0.0594,50.8098]}},{"type":"Feature","properties":{"n":"Amersham","r":4,"s":557},"geometry":{"type":"Point","coordinates":[-0.6167,51.6667]}},{"type":"Feature","properties":{"n":"Crowborough","r":4,"s":558},"geometry":{"type":"Point","coordinates":[0.1634,51.061]}},{"type":"Feature","properties":{"n":"Hadley Wood","r":4,"s":559},"geometry":{"type":"Point","coordinates":[-0.1698,51.6667]}},{"type":"Feature","properties":{"n":"Richmond","r":4,"s":560},"geometry":{"type":"Point","coordinates":[-0.3063,51.4617]}},{"type":"Feature","properties":{"n":"Speke","r":4,"s":561},"geometry":{"type":"Point","coordinates":[-2.841,53.3407]}},{"type":"Feature","properties":{"n":"Garston","r":4,"s":562},"geometry":{"type":"Point","coordinates":[-2.9,53.3333]}},{"type":"Feature","properties":{"n":"Hebburn","r":4,"s":563},"geometry":{"type":"Point","coordinates":[-1.5155,54.973]}},{"type":"Feature","properties":{"n":"Darton","r":4,"s":564},"geometry":{"type":"Point","coordinates":[-1.5268,53.587]}},{"type":"Feature","properties":{"n":"Workington","r":4,"s":565},"geometry":{"type":"Point","coordinates":[-3.5441,54.6425]}},{"type":"Feature","properties":{"n":"Horley","r":4,"s":566},"geometry":{"type":"Point","coordinates":[-0.1592,51.1742]}},{"type":"Feature","properties":{"n":"Cowes","r":4,"s":567},"geometry":{"type":"Point","coordinates":[-1.2978,50.7625]}},{"type":"Feature","properties":{"n":"Barnes","r":4,"s":568},"geometry":{"type":"Point","coordinates":[-0.2484,51.4735]}},{"type":"Feature","properties":{"n":"Dukinfield","r":4,"s":569},"geometry":{"type":"Point","coordinates":[-2.0881,53.475]}},{"type":"Feature","properties":{"n":"Dronfield","r":4,"s":570},"geometry":{"type":"Point","coordinates":[-1.4751,53.3022]}},{"type":"Feature","properties":{"n":"Ripley","r":4,"s":571},"geometry":{"type":"Point","coordinates":[-1.4,53.0333]}},{"type":"Feature","properties":{"n":"Omagh","r":4,"s":572},"geometry":{"type":"Point","coordinates":[-7.3,54.6]}},{"type":"Feature","properties":{"n":"March","r":4,"s":573},"geometry":{"type":"Point","coordinates":[0.0883,52.5513]}},{"type":"Feature","properties":{"n":"Stowmarket","r":4,"s":574},"geometry":{"type":"Point","coordinates":[0.9977,52.1889]}},{"type":"Feature","properties":{"n":"Clevedon","r":4,"s":575},"geometry":{"type":"Point","coordinates":[-2.8579,51.4423]}},{"type":"Feature","properties":{"n":"Maesteg","r":4,"s":576},"geometry":{"type":"Point","coordinates":[-3.6582,51.6093]}},{"type":"Feature","properties":{"n":"Guiseley","r":4,"s":577},"geometry":{"type":"Point","coordinates":[-1.7123,53.8756]}},{"type":"Feature","properties":{"n":"Bordon","r":4,"s":578},"geometry":{"type":"Point","coordinates":[-0.8625,51.1136]}},{"type":"Feature","properties":{"n":"Caterham","r":4,"s":579},"geometry":{"type":"Point","coordinates":[-0.0789,51.2823]}},{"type":"Feature","properties":{"n":"Wallington","r":4,"s":580},"geometry":{"type":"Point","coordinates":[-0.1537,51.364]}},{"type":"Feature","properties":{"n":"Goole","r":4,"s":581},"geometry":{"type":"Point","coordinates":[-0.8773,53.7032]}},{"type":"Feature","properties":{"n":"Sandhurst","r":4,"s":582},"geometry":{"type":"Point","coordinates":[-0.7865,51.3468]}},{"type":"Feature","properties":{"n":"Harwich","r":4,"s":583},"geometry":{"type":"Point","coordinates":[1.2844,51.9419]}},{"type":"Feature","properties":{"n":"Chesham","r":4,"s":584},"geometry":{"type":"Point","coordinates":[-0.6,51.7]}},{"type":"Feature","properties":{"n":"Gerrards Cross","r":4,"s":585},"geometry":{"type":"Point","coordinates":[-0.5554,51.5861]}},{"type":"Feature","properties":{"n":"Stamford","r":4,"s":586},"geometry":{"type":"Point","coordinates":[-0.4833,52.65]}},{"type":"Feature","properties":{"n":"Stourport-on-Severn","r":4,"s":587},"geometry":{"type":"Point","coordinates":[-2.2803,52.3398]}},{"type":"Feature","properties":{"n":"Gorseinon","r":4,"s":588},"geometry":{"type":"Point","coordinates":[-4.0416,51.6693]}},{"type":"Feature","properties":{"n":"Ely","r":4,"s":589},"geometry":{"type":"Point","coordinates":[0.262,52.3996]}},{"type":"Feature","properties":{"n":"Failsworth","r":4,"s":590},"geometry":{"type":"Point","coordinates":[-2.1657,53.5048]}},{"type":"Feature","properties":{"n":"Nailsea","r":4,"s":591},"geometry":{"type":"Point","coordinates":[-2.7585,51.4324]}},{"type":"Feature","properties":{"n":"Gainsborough","r":4,"s":592},"geometry":{"type":"Point","coordinates":[-0.7667,53.3833]}},{"type":"Feature","properties":{"n":"Hythe","r":4,"s":593},"geometry":{"type":"Point","coordinates":[-1.4016,50.86]}},{"type":"Feature","properties":{"n":"Camborne","r":4,"s":594},"geometry":{"type":"Point","coordinates":[-5.2973,50.2131]}},{"type":"Feature","properties":{"n":"Risca","r":4,"s":595},"geometry":{"type":"Point","coordinates":[-3.1008,51.608]}},{"type":"Feature","properties":{"n":"Halewood","r":4,"s":596},"geometry":{"type":"Point","coordinates":[-2.8315,53.3596]}},{"type":"Feature","properties":{"n":"Alloa","r":4,"s":597},"geometry":{"type":"Point","coordinates":[-3.79,56.1159]}},{"type":"Feature","properties":{"n":"Newmarket","r":4,"s":598},"geometry":{"type":"Point","coordinates":[0.4042,52.2447]}},{"type":"Feature","properties":{"n":"Tewkesbury","r":4,"s":599},"geometry":{"type":"Point","coordinates":[-2.1601,51.9924]}},{"type":"Feature","properties":{"n":"Yateley","r":4,"s":600},"geometry":{"type":"Point","coordinates":[-0.8298,51.343]}},{"type":"Feature","properties":{"n":"Wednesbury","r":4,"s":601},"geometry":{"type":"Point","coordinates":[-2.0236,52.5514]}},{"type":"Feature","properties":{"n":"Peterlee","r":4,"s":602},"geometry":{"type":"Point","coordinates":[-1.3365,54.7603]}},{"type":"Feature","properties":{"n":"Cirencester","r":4,"s":603},"geometry":{"type":"Point","coordinates":[-1.9714,51.7193]}},{"type":"Feature","properties":{"n":"Newquay","r":4,"s":604},"geometry":{"type":"Point","coordinates":[-5.0732,50.4156]}},{"type":"Feature","properties":{"n":"Hazel Grove","r":4,"s":605},"geometry":{"type":"Point","coordinates":[-2.1167,53.3833]}},{"type":"Feature","properties":{"n":"Sandown","r":4,"s":606},"geometry":{"type":"Point","coordinates":[-1.161,50.6516]}},{"type":"Feature","properties":{"n":"Colne","r":4,"s":607},"geometry":{"type":"Point","coordinates":[-2.1685,53.8571]}},{"type":"Feature","properties":{"n":"Chalfont Saint Peter","r":4,"s":608},"geometry":{"type":"Point","coordinates":[-0.5562,51.6088]}},{"type":"Feature","properties":{"n":"Buxton","r":4,"s":609},"geometry":{"type":"Point","coordinates":[-1.9098,53.2574]}},{"type":"Feature","properties":{"n":"Ampthill","r":4,"s":610},"geometry":{"type":"Point","coordinates":[-0.4957,52.0269]}},{"type":"Feature","properties":{"n":"Portslade","r":4,"s":611},"geometry":{"type":"Point","coordinates":[-0.2161,50.8429]}},{"type":"Feature","properties":{"n":"Kingswinford","r":4,"s":612},"geometry":{"type":"Point","coordinates":[-2.1689,52.4975]}},{"type":"Feature","properties":{"n":"Hampton","r":4,"s":613},"geometry":{"type":"Point","coordinates":[-0.367,51.4133]}},{"type":"Feature","properties":{"n":"Bowthorpe","r":4,"s":614},"geometry":{"type":"Point","coordinates":[1.2188,52.6388]}},{"type":"Feature","properties":{"n":"Kempston Hardwick","r":4,"s":615},"geometry":{"type":"Point","coordinates":[-0.4991,52.0896]}},{"type":"Feature","properties":{"n":"Dumbarton","r":4,"s":616},"geometry":{"type":"Point","coordinates":[-4.5706,55.9443]}},{"type":"Feature","properties":{"n":"Poulton-le-Fylde","r":4,"s":617},"geometry":{"type":"Point","coordinates":[-2.9833,53.8333]}},{"type":"Feature","properties":{"n":"Brough","r":4,"s":618},"geometry":{"type":"Point","coordinates":[-0.5722,53.7286]}},{"type":"Feature","properties":{"n":"Kempston","r":4,"s":619},"geometry":{"type":"Point","coordinates":[-0.5004,52.116]}},{"type":"Feature","properties":{"n":"Penzance","r":4,"s":620},"geometry":{"type":"Point","coordinates":[-5.5371,50.1186]}},{"type":"Feature","properties":{"n":"Dinnington","r":4,"s":621},"geometry":{"type":"Point","coordinates":[-1.2,53.3667]}},{"type":"Feature","properties":{"n":"Bellshill","r":4,"s":622},"geometry":{"type":"Point","coordinates":[-4.0167,55.8167]}},{"type":"Feature","properties":{"n":"Antrim","r":4,"s":623},"geometry":{"type":"Point","coordinates":[-6.211,54.7175]}},{"type":"Feature","properties":{"n":"Kirkintilloch","r":4,"s":624},"geometry":{"type":"Point","coordinates":[-4.1526,55.9393]}},{"type":"Feature","properties":{"n":"Keynsham","r":4,"s":625},"geometry":{"type":"Point","coordinates":[-2.4978,51.4139]}},{"type":"Feature","properties":{"n":"Earl Shilton","r":4,"s":626},"geometry":{"type":"Point","coordinates":[-1.3154,52.5768]}},{"type":"Feature","properties":{"n":"Adwick le Street","r":4,"s":627},"geometry":{"type":"Point","coordinates":[-1.1845,53.5708]}},{"type":"Feature","properties":{"n":"Weybridge","r":4,"s":628},"geometry":{"type":"Point","coordinates":[-0.4597,51.3718]}},{"type":"Feature","properties":{"n":"Irlam","r":4,"s":629},"geometry":{"type":"Point","coordinates":[-2.4232,53.4425]}},{"type":"Feature","properties":{"n":"Chessington","r":4,"s":630},"geometry":{"type":"Point","coordinates":[-0.3043,51.3624]}},{"type":"Feature","properties":{"n":"Alton","r":4,"s":631},"geometry":{"type":"Point","coordinates":[-0.9747,51.1493]}},{"type":"Feature","properties":{"n":"Liversedge","r":4,"s":632},"geometry":{"type":"Point","coordinates":[-1.6933,53.7051]}},{"type":"Feature","properties":{"n":"Leek","r":4,"s":633},"geometry":{"type":"Point","coordinates":[-2.0221,53.1043]}},{"type":"Feature","properties":{"n":"Melksham","r":4,"s":634},"geometry":{"type":"Point","coordinates":[-2.14,51.3728]}},{"type":"Feature","properties":{"n":"Horsforth","r":4,"s":635},"geometry":{"type":"Point","coordinates":[-1.6375,53.8426]}},{"type":"Feature","properties":{"n":"Clydach","r":4,"s":636},"geometry":{"type":"Point","coordinates":[-3.9,51.6833]}},{"type":"Feature","properties":{"n":"East Dereham","r":4,"s":637},"geometry":{"type":"Point","coordinates":[0.9333,52.6833]}},{"type":"Feature","properties":{"n":"Great Wyrley","r":4,"s":638},"geometry":{"type":"Point","coordinates":[-2.0111,52.6628]}},{"type":"Feature","properties":{"n":"Yarm","r":4,"s":639},"geometry":{"type":"Point","coordinates":[-1.3579,54.5036]}},{"type":"Feature","properties":{"n":"Shoreham-by-Sea","r":4,"s":640},"geometry":{"type":"Point","coordinates":[-0.2743,50.8341]}},{"type":"Feature","properties":{"n":"Pinner","r":4,"s":641},"geometry":{"type":"Point","coordinates":[-0.3822,51.5938]}},{"type":"Feature","properties":{"n":"Prestatyn","r":4,"s":642},"geometry":{"type":"Point","coordinates":[-3.4078,53.3375]}},{"type":"Feature","properties":{"n":"Peterhead","r":4,"s":643},"geometry":{"type":"Point","coordinates":[-1.7844,57.5052]}},{"type":"Feature","properties":{"n":"Hook","r":4,"s":644},"geometry":{"type":"Point","coordinates":[-0.3065,51.368]}},{"type":"Feature","properties":{"n":"Humberstone","r":4,"s":645},"geometry":{"type":"Point","coordinates":[-1.0865,52.6474]}},{"type":"Feature","properties":{"n":"South Elmsall","r":4,"s":646},"geometry":{"type":"Point","coordinates":[-1.2803,53.5971]}},{"type":"Feature","properties":{"n":"Golders Green","r":4,"s":647},"geometry":{"type":"Point","coordinates":[-0.2003,51.5763]}},{"type":"Feature","properties":{"n":"Mirfield","r":4,"s":648},"geometry":{"type":"Point","coordinates":[-1.6964,53.6734]}},{"type":"Feature","properties":{"n":"Emsworth","r":4,"s":649},"geometry":{"type":"Point","coordinates":[-0.937,50.8478]}},{"type":"Feature","properties":{"n":"Aberystwyth","r":4,"s":650},"geometry":{"type":"Point","coordinates":[-4.0829,52.4155]}},{"type":"Feature","properties":{"n":"Oswestry","r":4,"s":651},"geometry":{"type":"Point","coordinates":[-3.055,52.862]}},{"type":"Feature","properties":{"n":"Horwich","r":4,"s":652},"geometry":{"type":"Point","coordinates":[-2.5497,53.6013]}},{"type":"Feature","properties":{"n":"Lancing","r":4,"s":653},"geometry":{"type":"Point","coordinates":[-0.3225,50.8288]}},{"type":"Feature","properties":{"n":"Eastwood","r":4,"s":654},"geometry":{"type":"Point","coordinates":[-1.3,53.0]}},{"type":"Feature","properties":{"n":"Peacehaven","r":4,"s":655},"geometry":{"type":"Point","coordinates":[-0.0065,50.7927]}},{"type":"Feature","properties":{"n":"West Molesey","r":4,"s":656},"geometry":{"type":"Point","coordinates":[-0.38,51.3999]}},{"type":"Feature","properties":{"n":"East Molesey","r":4,"s":657},"geometry":{"type":"Point","coordinates":[-0.3492,51.3987]}},{"type":"Feature","properties":{"n":"Rawmarsh","r":4,"s":658},"geometry":{"type":"Point","coordinates":[-1.3444,53.4606]}},{"type":"Feature","properties":{"n":"Bedlington","r":4,"s":659},"geometry":{"type":"Point","coordinates":[-1.5932,55.1306]}},{"type":"Feature","properties":{"n":"Uckfield","r":4,"s":660},"geometry":{"type":"Point","coordinates":[0.0959,50.9695]}},{"type":"Feature","properties":{"n":"Larne","r":4,"s":661},"geometry":{"type":"Point","coordinates":[-5.8167,54.85]}},{"type":"Feature","properties":{"n":"Saint Andrews","r":4,"s":662},"geometry":{"type":"Point","coordinates":[-2.799,56.3387]}},{"type":"Feature","properties":{"n":"Mansfield Woodhouse","r":4,"s":663},"geometry":{"type":"Point","coordinates":[-1.1938,53.1649]}},{"type":"Feature","properties":{"n":"Bangor","r":4,"s":664},"geometry":{"type":"Point","coordinates":[-4.1294,53.2275]}},{"type":"Feature","properties":{"n":"Bonnyrigg","r":4,"s":665},"geometry":{"type":"Point","coordinates":[-3.1051,55.8733]}},{"type":"Feature","properties":{"n":"Hadleigh","r":4,"s":666},"geometry":{"type":"Point","coordinates":[0.6098,51.5527]}},{"type":"Feature","properties":{"n":"Marlow","r":4,"s":667},"geometry":{"type":"Point","coordinates":[-0.7742,51.5693]}},{"type":"Feature","properties":{"n":"Fulwood","r":4,"s":668},"geometry":{"type":"Point","coordinates":[-1.55,53.35]}},{"type":"Feature","properties":{"n":"Chapel Allerton","r":4,"s":669},"geometry":{"type":"Point","coordinates":[-1.5383,53.829]}},{"type":"Feature","properties":{"n":"Heckmondwike","r":4,"s":670},"geometry":{"type":"Point","coordinates":[-1.6775,53.7065]}},{"type":"Feature","properties":{"n":"Brymbo","r":4,"s":671},"geometry":{"type":"Point","coordinates":[-3.0667,53.0667]}},{"type":"Feature","properties":{"n":"Bingley","r":4,"s":672},"geometry":{"type":"Point","coordinates":[-1.8386,53.8486]}},{"type":"Feature","properties":{"n":"Dalserf","r":4,"s":673},"geometry":{"type":"Point","coordinates":[-3.9167,55.7333]}},{"type":"Feature","properties":{"n":"Hedge End","r":4,"s":674},"geometry":{"type":"Point","coordinates":[-1.3008,50.9123]}},{"type":"Feature","properties":{"n":"Sandbach","r":4,"s":675},"geometry":{"type":"Point","coordinates":[-2.3625,53.1452]}},{"type":"Feature","properties":{"n":"New Mills","r":4,"s":676},"geometry":{"type":"Point","coordinates":[-1.9999,53.3659]}},{"type":"Feature","properties":{"n":"Ascot","r":4,"s":677},"geometry":{"type":"Point","coordinates":[-0.6748,51.4108]}},{"type":"Feature","properties":{"n":"Barrhead","r":4,"s":678},"geometry":{"type":"Point","coordinates":[-4.3929,55.7992]}},{"type":"Feature","properties":{"n":"Glossop","r":4,"s":679},"geometry":{"type":"Point","coordinates":[-1.949,53.4432]}},{"type":"Feature","properties":{"n":"Spennymoor","r":4,"s":680},"geometry":{"type":"Point","coordinates":[-1.6023,54.6988]}},{"type":"Feature","properties":{"n":"Dorking","r":4,"s":681},"geometry":{"type":"Point","coordinates":[-0.3338,51.2323]}},{"type":"Feature","properties":{"n":"Amersham on the Hill","r":4,"s":682},"geometry":{"type":"Point","coordinates":[-0.6074,51.6747]}},{"type":"Feature","properties":{"n":"Abbey Wood","r":4,"s":683},"geometry":{"type":"Point","coordinates":[0.1075,51.4869]}},{"type":"Feature","properties":{"n":"Moreton","r":4,"s":684},"geometry":{"type":"Point","coordinates":[-3.1167,53.4]}},{"type":"Feature","properties":{"n":"Biddulph","r":4,"s":685},"geometry":{"type":"Point","coordinates":[-2.1758,53.1172]}},{"type":"Feature","properties":{"n":"Bishopstoke","r":4,"s":686},"geometry":{"type":"Point","coordinates":[-1.3283,50.9664]}},{"type":"Feature","properties":{"n":"Ferndown","r":4,"s":687},"geometry":{"type":"Point","coordinates":[-1.8998,50.8074]}},{"type":"Feature","properties":{"n":"Ware","r":4,"s":688},"geometry":{"type":"Point","coordinates":[-0.0288,51.8106]}},{"type":"Feature","properties":{"n":"Maltby","r":4,"s":689},"geometry":{"type":"Point","coordinates":[-1.2,53.4167]}},{"type":"Feature","properties":{"n":"Warminster","r":4,"s":690},"geometry":{"type":"Point","coordinates":[-2.1787,51.2043]}},{"type":"Feature","properties":{"n":"Walton-on-the-Naze","r":4,"s":691},"geometry":{"type":"Point","coordinates":[1.2674,51.8482]}},{"type":"Feature","properties":{"n":"Louth","r":4,"s":692},"geometry":{"type":"Point","coordinates":[-0.0044,53.3666]}},{"type":"Feature","properties":{"n":"Gelligaer","r":4,"s":693},"geometry":{"type":"Point","coordinates":[-3.2561,51.6644]}},{"type":"Feature","properties":{"n":"Sleaford","r":4,"s":694},"geometry":{"type":"Point","coordinates":[-0.4094,52.9983]}},{"type":"Feature","properties":{"n":"Haydock","r":4,"s":695},"geometry":{"type":"Point","coordinates":[-2.6817,53.4672]}},{"type":"Feature","properties":{"n":"Mountsorrel","r":4,"s":696},"geometry":{"type":"Point","coordinates":[-1.15,52.7167]}},{"type":"Feature","properties":{"n":"Lewes","r":4,"s":697},"geometry":{"type":"Point","coordinates":[0.0088,50.874]}},{"type":"Feature","properties":{"n":"Thorne","r":4,"s":698},"geometry":{"type":"Point","coordinates":[-0.9631,53.6112]}},{"type":"Feature","properties":{"n":"Haslemere","r":4,"s":699},"geometry":{"type":"Point","coordinates":[-0.7078,51.0902]}},{"type":"Feature","properties":{"n":"Calne","r":4,"s":700},"geometry":{"type":"Point","coordinates":[-2.0057,51.4388]}},{"type":"Feature","properties":{"n":"Evington","r":4,"s":701},"geometry":{"type":"Point","coordinates":[-1.0667,52.6]}},{"type":"Feature","properties":{"n":"Friern Barnet","r":4,"s":702},"geometry":{"type":"Point","coordinates":[-0.1585,51.6133]}},{"type":"Feature","properties":{"n":"Nantwich","r":4,"s":703},"geometry":{"type":"Point","coordinates":[-2.5205,53.0688]}},{"type":"Feature","properties":{"n":"Bramhall","r":4,"s":704},"geometry":{"type":"Point","coordinates":[-2.1654,53.358]}},{"type":"Feature","properties":{"n":"Glen Parva","r":4,"s":705},"geometry":{"type":"Point","coordinates":[-1.1706,52.5853]}},{"type":"Feature","properties":{"n":"Harlesden","r":4,"s":706},"geometry":{"type":"Point","coordinates":[-0.2502,51.5381]}},{"type":"Feature","properties":{"n":"Romsey","r":4,"s":707},"geometry":{"type":"Point","coordinates":[-1.4999,50.9891]}},{"type":"Feature","properties":{"n":"Primrose Place","r":4,"s":708},"geometry":{"type":"Point","coordinates":[-0.1089,52.5606]}},{"type":"Feature","properties":{"n":"Brockley","r":4,"s":709},"geometry":{"type":"Point","coordinates":[-0.0365,51.4637]}},{"type":"Feature","properties":{"n":"Blantyre","r":4,"s":710},"geometry":{"type":"Point","coordinates":[-4.0949,55.7963]}},{"type":"Feature","properties":{"n":"Ramsbottom","r":4,"s":711},"geometry":{"type":"Point","coordinates":[-2.3168,53.6479]}},{"type":"Feature","properties":{"n":"Bredbury","r":4,"s":712},"geometry":{"type":"Point","coordinates":[-2.1167,53.4167]}},{"type":"Feature","properties":{"n":"Heysham","r":4,"s":713},"geometry":{"type":"Point","coordinates":[-2.8932,54.0437]}},{"type":"Feature","properties":{"n":"Westbury","r":4,"s":714},"geometry":{"type":"Point","coordinates":[-2.1875,51.26]}},{"type":"Feature","properties":{"n":"Guisborough","r":4,"s":715},"geometry":{"type":"Point","coordinates":[-1.0561,54.5348]}},{"type":"Feature","properties":{"n":"Wath upon Dearne","r":4,"s":716},"geometry":{"type":"Point","coordinates":[-1.3458,53.5029]}},{"type":"Feature","properties":{"n":"Frinton-on-Sea","r":4,"s":717},"geometry":{"type":"Point","coordinates":[1.2442,51.8306]}},{"type":"Feature","properties":{"n":"Bodmin","r":4,"s":718},"geometry":{"type":"Point","coordinates":[-4.7243,50.4715]}},{"type":"Feature","properties":{"n":"Dorchester","r":4,"s":719},"geometry":{"type":"Point","coordinates":[-2.4333,50.7167]}},{"type":"Feature","properties":{"n":"Braunstone","r":4,"s":720},"geometry":{"type":"Point","coordinates":[-1.179,52.6183]}},{"type":"Feature","properties":{"n":"Devizes","r":4,"s":721},"geometry":{"type":"Point","coordinates":[-1.9942,51.3508]}},{"type":"Feature","properties":{"n":"Northallerton","r":4,"s":722},"geometry":{"type":"Point","coordinates":[-1.4324,54.339]}},{"type":"Feature","properties":{"n":"Saint Ives","r":4,"s":723},"geometry":{"type":"Point","coordinates":[-0.0766,52.3325]}},{"type":"Feature","properties":{"n":"Longfield","r":4,"s":724},"geometry":{"type":"Point","coordinates":[0.3021,51.3969]}},{"type":"Feature","properties":{"n":"Rochford","r":4,"s":725},"geometry":{"type":"Point","coordinates":[0.7067,51.582]}},{"type":"Feature","properties":{"n":"High Blantyre","r":4,"s":726},"geometry":{"type":"Point","coordinates":[-4.1001,55.7844]}},{"type":"Feature","properties":{"n":"Plumstead","r":4,"s":727},"geometry":{"type":"Point","coordinates":[0.0833,51.4833]}},{"type":"Feature","properties":{"n":"Cobham","r":4,"s":728},"geometry":{"type":"Point","coordinates":[-0.4113,51.33]}},{"type":"Feature","properties":{"n":"Hale","r":4,"s":729},"geometry":{"type":"Point","coordinates":[-2.3327,53.3783]}},{"type":"Feature","properties":{"n":"Penrith","r":4,"s":730},"geometry":{"type":"Point","coordinates":[-2.7576,54.6658]}},{"type":"Feature","properties":{"n":"Brixham","r":4,"s":731},"geometry":{"type":"Point","coordinates":[-3.5158,50.3943]}},{"type":"Feature","properties":{"n":"Whickham","r":4,"s":732},"geometry":{"type":"Point","coordinates":[-1.6764,54.9456]}},{"type":"Feature","properties":{"n":"Saffron Walden","r":4,"s":733},"geometry":{"type":"Point","coordinates":[0.2423,52.0234]}},{"type":"Feature","properties":{"n":"Biggleswade","r":4,"s":734},"geometry":{"type":"Point","coordinates":[-0.2649,52.0865]}},{"type":"Feature","properties":{"n":"Cowley","r":4,"s":735},"geometry":{"type":"Point","coordinates":[-1.2063,51.7321]}},{"type":"Feature","properties":{"n":"Harringay","r":4,"s":736},"geometry":{"type":"Point","coordinates":[-0.0996,51.5824]}},{"type":"Feature","properties":{"n":"Enfield Lock","r":4,"s":737},"geometry":{"type":"Point","coordinates":[-0.0275,51.6709]}},{"type":"Feature","properties":{"n":"Fazakerley","r":4,"s":738},"geometry":{"type":"Point","coordinates":[-2.9286,53.4614]}},{"type":"Feature","properties":{"n":"Ripon","r":4,"s":739},"geometry":{"type":"Point","coordinates":[-1.5283,54.1358]}},{"type":"Feature","properties":{"n":"Hartley","r":4,"s":740},"geometry":{"type":"Point","coordinates":[0.3037,51.3867]}},{"type":"Feature","properties":{"n":"Stepney","r":4,"s":741},"geometry":{"type":"Point","coordinates":[-0.0429,51.5175]}},{"type":"Feature","properties":{"n":"Banbridge","r":4,"s":742},"geometry":{"type":"Point","coordinates":[-6.2833,54.35]}},{"type":"Feature","properties":{"n":"Penicuik","r":4,"s":743},"geometry":{"type":"Point","coordinates":[-3.2261,55.8312]}},{"type":"Feature","properties":{"n":"Grangemouth","r":4,"s":744},"geometry":{"type":"Point","coordinates":[-3.7218,56.0114]}},{"type":"Feature","properties":{"n":"Kilwinning","r":4,"s":745},"geometry":{"type":"Point","coordinates":[-4.7067,55.6533]}},{"type":"Feature","properties":{"n":"Ryton","r":4,"s":746},"geometry":{"type":"Point","coordinates":[-2.35,52.6167]}},{"type":"Feature","properties":{"n":"Worcester Park","r":4,"s":747},"geometry":{"type":"Point","coordinates":[-0.2445,51.3799]}},{"type":"Feature","properties":{"n":"Viewpark","r":4,"s":748},"geometry":{"type":"Point","coordinates":[-4.0573,55.8274]}},{"type":"Feature","properties":{"n":"Basford","r":4,"s":749},"geometry":{"type":"Point","coordinates":[-1.1833,52.9667]}},{"type":"Feature","properties":{"n":"Broxburn","r":4,"s":750},"geometry":{"type":"Point","coordinates":[-3.4713,55.9342]}},{"type":"Feature","properties":{"n":"Chertsey","r":4,"s":751},"geometry":{"type":"Point","coordinates":[-0.5078,51.3881]}},{"type":"Feature","properties":{"n":"Kippax","r":4,"s":752},"geometry":{"type":"Point","coordinates":[-1.371,53.7669]}},{"type":"Feature","properties":{"n":"Conisbrough","r":4,"s":753},"geometry":{"type":"Point","coordinates":[-1.2321,53.4819]}},{"type":"Feature","properties":{"n":"Johnstone","r":4,"s":754},"geometry":{"type":"Point","coordinates":[-4.516,55.8291]}},{"type":"Feature","properties":{"n":"Hayes","r":4,"s":755},"geometry":{"type":"Point","coordinates":[0.0168,51.3779]}},{"type":"Feature","properties":{"n":"Carmarthen","r":4,"s":756},"geometry":{"type":"Point","coordinates":[-4.3053,51.8555]}},{"type":"Feature","properties":{"n":"Hoyland Nether","r":4,"s":757},"geometry":{"type":"Point","coordinates":[-1.45,53.5]}},{"type":"Feature","properties":{"n":"Tadley","r":4,"s":758},"geometry":{"type":"Point","coordinates":[-1.1285,51.3505]}},{"type":"Feature","properties":{"n":"Swanscombe","r":4,"s":759},"geometry":{"type":"Point","coordinates":[0.3103,51.4471]}},{"type":"Feature","properties":{"n":"Royston","r":4,"s":760},"geometry":{"type":"Point","coordinates":[-0.0244,52.0483]}},{"type":"Feature","properties":{"n":"Fort William","r":4,"s":761},"geometry":{"type":"Point","coordinates":[-5.1121,56.8165]}},{"type":"Feature","properties":{"n":"Baildon","r":4,"s":762},"geometry":{"type":"Point","coordinates":[-1.7878,53.8471]}},{"type":"Feature","properties":{"n":"Carterton","r":4,"s":763},"geometry":{"type":"Point","coordinates":[-1.5943,51.7591]}},{"type":"Feature","properties":{"n":"Porthcawl","r":4,"s":764},"geometry":{"type":"Point","coordinates":[-3.7036,51.479]}},{"type":"Feature","properties":{"n":"Ponders End","r":4,"s":765},"geometry":{"type":"Point","coordinates":[-0.0465,51.6445]}},{"type":"Feature","properties":{"n":"Elland","r":4,"s":766},"geometry":{"type":"Point","coordinates":[-1.8388,53.6851]}},{"type":"Feature","properties":{"n":"Chislehurst","r":4,"s":767},"geometry":{"type":"Point","coordinates":[0.0686,51.4171]}},{"type":"Feature","properties":{"n":"Old Swan","r":4,"s":768},"geometry":{"type":"Point","coordinates":[-2.9089,53.4139]}},{"type":"Feature","properties":{"n":"Saltash","r":4,"s":769},"geometry":{"type":"Point","coordinates":[-4.2251,50.4096]}},{"type":"Feature","properties":{"n":"Earlsfield","r":4,"s":770},"geometry":{"type":"Point","coordinates":[-0.1854,51.4439]}},{"type":"Feature","properties":{"n":"Wimborne Minster","r":4,"s":771},"geometry":{"type":"Point","coordinates":[-1.9833,50.7833]}},{"type":"Feature","properties":{"n":"West Ham","r":4,"s":772},"geometry":{"type":"Point","coordinates":[0.0167,51.5333]}},{"type":"Feature","properties":{"n":"Allerton","r":4,"s":773},"geometry":{"type":"Point","coordinates":[-2.894,53.367]}},{"type":"Feature","properties":{"n":"Erskine","r":4,"s":774},"geometry":{"type":"Point","coordinates":[-4.4503,55.9005]}},{"type":"Feature","properties":{"n":"Wombwell","r":4,"s":775},"geometry":{"type":"Point","coordinates":[-1.397,53.5219]}},{"type":"Feature","properties":{"n":"South Hayling","r":4,"s":776},"geometry":{"type":"Point","coordinates":[-0.977,50.7877]}},{"type":"Feature","properties":{"n":"Blackwood","r":4,"s":777},"geometry":{"type":"Point","coordinates":[-3.2075,51.6678]}},{"type":"Feature","properties":{"n":"Stapleford","r":4,"s":778},"geometry":{"type":"Point","coordinates":[-1.2667,52.9167]}},{"type":"Feature","properties":{"n":"Llandudno","r":4,"s":779},"geometry":{"type":"Point","coordinates":[-3.8315,53.325]}},{"type":"Feature","properties":{"n":"Neston","r":4,"s":780},"geometry":{"type":"Point","coordinates":[-2.2006,51.4122]}},{"type":"Feature","properties":{"n":"Manor Park","r":4,"s":781},"geometry":{"type":"Point","coordinates":[0.0487,51.5493]}},{"type":"Feature","properties":{"n":"Orpington","r":4,"s":782},"geometry":{"type":"Point","coordinates":[0.0979,51.3746]}},{"type":"Feature","properties":{"n":"Haslingden","r":4,"s":783},"geometry":{"type":"Point","coordinates":[-2.3238,53.7033]}},{"type":"Feature","properties":{"n":"West Ealing","r":4,"s":784},"geometry":{"type":"Point","coordinates":[-0.3229,51.5136]}},{"type":"Feature","properties":{"n":"Palmers Green","r":4,"s":785},"geometry":{"type":"Point","coordinates":[-0.1101,51.6179]}},{"type":"Feature","properties":{"n":"Totteridge","r":4,"s":786},"geometry":{"type":"Point","coordinates":[-0.2,51.6333]}},{"type":"Feature","properties":{"n":"Blaydon-on-Tyne","r":4,"s":787},"geometry":{"type":"Point","coordinates":[-1.7139,54.9646]}},{"type":"Feature","properties":{"n":"Sinfin","r":4,"s":788},"geometry":{"type":"Point","coordinates":[-1.4868,52.8816]}},{"type":"Feature","properties":{"n":"Shadwell","r":4,"s":789},"geometry":{"type":"Point","coordinates":[-0.0566,51.5114]}},{"type":"Feature","properties":{"n":"Mexborough","r":4,"s":790},"geometry":{"type":"Point","coordinates":[-1.2924,53.4939]}},{"type":"Feature","properties":{"n":"Newport Pagnell","r":4,"s":791},"geometry":{"type":"Point","coordinates":[-0.7222,52.0873]}},{"type":"Feature","properties":{"n":"Neston","r":4,"s":792},"geometry":{"type":"Point","coordinates":[-3.05,53.2833]}},{"type":"Feature","properties":{"n":"Larkhall","r":4,"s":793},"geometry":{"type":"Point","coordinates":[-3.9667,55.7333]}},{"type":"Feature","properties":{"n":"Cleveleys","r":4,"s":794},"geometry":{"type":"Point","coordinates":[-3.0399,53.8775]}}]}